{
"type": "FeatureCollection",
"name": "santiago_greenspace_cv_sample",
"crs": { "type": "name", "properties": { "name": "urn:ogc:def:crs:OGC:1.3:CRS84" } },
"features": [
{ "type": "Feature", "properties": { "name": "Alhué", "sample_id": 0, "cv_green_pct": 0.38, "osm_green_pct": 0.0, "cv_inside_osm_pct": 0.0, "cv_outside_osm_pct": 100.0, "method": "exg", "zoom": 17, "exg_threshold": 0.506 }, "geometry": { "type": "Polygon", "coordinates": [ [ [ -70.90301513671875, -34.061761361297172 ], [ -70.90301513671875, -34.054934997985583 ], [ -70.9112548828125, -34.054934997985583 ], [ -70.9112548828125, -34.061761361297172 ], [ -70.90301513671875, -34.061761361297172 ] ] ] } },
{ "type": "Feature", "properties": { "name": "Buin", "sample_id": 1, "cv_green_pct": 2.54, "osm_green_pct": 0.0, "cv_inside_osm_pct": 0.0, "cv_outside_osm_pct": 100.0, "method": "exg", "zoom": 17, "exg_threshold": 0.061 }, "geometry": { "type": "Polygon", "coordinates": [ [ [ -70.6475830078125, -33.703777755732524 ], [ -70.6475830078125, -33.696922692957671 ], [ -70.65582275390625, -33.696922692957671 ], [ -70.65582275390625, -33.703777755732524 ], [ -70.6475830078125, -33.703777755732524 ] ] ] } },
{ "type": "Feature", "properties": { "name": "Calera de Tango", "sample_id": 2, "cv_green_pct": 0.28, "osm_green_pct": 0.0, "cv_inside_osm_pct": 0.0, "cv_outside_osm_pct": 100.0, "method": "exg", "zoom": 17, "exg_threshold": 0.658 }, "geometry": { "type": "Polygon", "coordinates": [ [ [ -70.762939453125, -33.594031146632339 ], [ -70.762939453125, -33.587167339046566 ], [ -70.77117919921875, -33.587167339046566 ], [ -70.77117919921875, -33.594031146632339 ], [ -70.762939453125, -33.594031146632339 ] ] ] } },
{ "type": "Feature", "properties": { "name": "Cerrillos", "sample_id": 3, "cv_green_pct": 3.5, "osm_green_pct": 8.67, "cv_inside_osm_pct": 18.77, "cv_outside_osm_pct": 81.23, "method": "exg", "zoom": 17, "exg_threshold": 0.471 }, "geometry": { "type": "Polygon", "coordinates": [ [ [ -70.72998046875, -33.5093393678006 ], [ -70.72998046875, -33.502468829034314 ], [ -70.73822021484375, -33.502468829034314 ], [ -70.73822021484375, -33.5093393678006 ], [ -70.72998046875, -33.5093393678006 ] ] ] } },
{ "type": "Feature", "properties": { "name": "Cerro Navia", "sample_id": 4, "cv_green_pct": 5.33, "osm_green_pct": 11.96, "cv_inside_osm_pct": 19.57, "cv_outside_osm_pct": 80.43, "method": "exg", "zoom": 17, "exg_threshold": 0.283 }, "geometry": { "type": "Polygon", "coordinates": [ [ [ -70.75469970703125, -33.417687357334934 ], [ -70.75469970703125, -33.410809551114319 ], [ -70.762939453125, -33.410809551114319 ], [ -70.762939453125, -33.417687357334934 ], [ -70.75469970703125, -33.417687357334934 ] ] ] } },
{ "type": "Feature", "properties": { "name": "Colina", "sample_id": 5, "cv_green_pct": 4.37, "osm_green_pct": 0.0, "cv_inside_osm_pct": 0.0, "cv_outside_osm_pct": 100.0, "method": "exg", "zoom": 17, "exg_threshold": 0.05 }, "geometry": { "type": "Polygon", "coordinates": [ [ [ -70.6036376953125, -33.254766629316549 ], [ -70.6036376953125, -33.247875947924378 ], [ -70.61187744140625, -33.247875947924378 ], [ -70.61187744140625, -33.254766629316549 ], [ -70.6036376953125, -33.254766629316549 ] ] ] } },
{ "type": "Feature", "properties": { "name": "Conchalí", "sample_id": 6, "cv_green_pct": 1.97, "osm_green_pct": 1.21, "cv_inside_osm_pct": 4.37, "cv_outside_osm_pct": 95.63, "method": "exg", "zoom": 17, "exg_threshold": 0.342 }, "geometry": { "type": "Polygon", "coordinates": [ [ [ -70.67230224609375, -33.40393120023468 ], [ -70.67230224609375, -33.397052304752052 ], [ -70.6805419921875, -33.397052304752052 ], [ -70.6805419921875, -33.40393120023468 ], [ -70.67230224609375, -33.40393120023468 ] ] ] } },
{ "type": "Feature", "properties": { "name": "Curacaví", "sample_id": 7, "cv_green_pct": 9.03, "osm_green_pct": 0.0, "cv_inside_osm_pct": 0.0, "cv_outside_osm_pct": 100.0, "method": "exg", "zoom": 17, "exg_threshold": 0.143 }, "geometry": { "type": "Polygon", "coordinates": [ [ [ -71.00189208984375, -33.433733453417013 ], [ -71.00189208984375, -33.426856918285004 ], [ -71.0101318359375, -33.426856918285004 ], [ -71.0101318359375, -33.433733453417013 ], [ -71.00189208984375, -33.433733453417013 ] ] ] } },
{ "type": "Feature", "properties": { "name": "El Bosque", "sample_id": 8, "cv_green_pct": 1.65, "osm_green_pct": 3.24, "cv_inside_osm_pct": 9.93, "cv_outside_osm_pct": 90.07, "method": "exg", "zoom": 17, "exg_threshold": 0.354 }, "geometry": { "type": "Polygon", "coordinates": [ [ [ -70.66131591796875, -33.580302985376541 ], [ -70.66131591796875, -33.573438085677338 ], [ -70.6695556640625, -33.573438085677338 ], [ -70.6695556640625, -33.580302985376541 ], [ -70.66131591796875, -33.580302985376541 ] ] ] } },
{ "type": "Feature", "properties": { "name": "El Monte", "sample_id": 9, "cv_green_pct": 34.74, "osm_green_pct": 0.0, "cv_inside_osm_pct": 0.0, "cv_outside_osm_pct": 100.0, "method": "exg", "zoom": 17, "exg_threshold": 0.268 }, "geometry": { "type": "Polygon", "coordinates": [ [ [ -71.02935791015625, -33.722055248687298 ], [ -71.02935791015625, -33.715201644740851 ], [ -71.03759765625, -33.715201644740851 ], [ -71.03759765625, -33.722055248687298 ], [ -71.02935791015625, -33.722055248687298 ] ] ] } },
{ "type": "Feature", "properties": { "name": "Estación Central", "sample_id": 10, "cv_green_pct": 4.91, "osm_green_pct": 24.8, "cv_inside_osm_pct": 71.19, "cv_outside_osm_pct": 28.81, "method": "exg", "zoom": 17, "exg_threshold": 0.576 }, "geometry": { "type": "Polygon", "coordinates": [ [ [ -70.68328857421875, -33.447484889088841 ], [ -70.68328857421875, -33.440609443703572 ], [ -70.6915283203125, -33.440609443703572 ], [ -70.6915283203125, -33.447484889088841 ], [ -70.68328857421875, -33.447484889088841 ] ] ] } },
{ "type": "Feature", "properties": { "name": "Huechuraba", "sample_id": 11, "cv_green_pct": 6.8, "osm_green_pct": 6.41, "cv_inside_osm_pct": 24.25, "cv_outside_osm_pct": 75.75, "method": "exg", "zoom": 17, "exg_threshold": 0.236 }, "geometry": { "type": "Polygon", "coordinates": [ [ [ -70.653076171875, -33.378705921387805 ], [ -70.653076171875, -33.371825029507256 ], [ -70.66131591796875, -33.371825029507256 ], [ -70.66131591796875, -33.378705921387805 ], [ -70.653076171875, -33.378705921387805 ] ] ] } },
{ "type": "Feature", "properties": { "name": "Independencia", "sample_id": 12, "cv_green_pct": 6.82, "osm_green_pct": 13.34, "cv_inside_osm_pct": 19.81, "cv_outside_osm_pct": 80.19, "method": "exg", "zoom": 17, "exg_threshold": 0.389 }, "geometry": { "type": "Polygon", "coordinates": [ [ [ -70.6640625, -33.429149157197266 ], [ -70.6640625, -33.42227225886603 ], [ -70.67230224609375, -33.42227225886603 ], [ -70.67230224609375, -33.429149157197266 ], [ -70.6640625, -33.429149157197266 ] ] ] } },
{ "type": "Feature", "properties": { "name": "Isla de Maipo", "sample_id": 13, "cv_green_pct": 36.82, "osm_green_pct": 0.0, "cv_inside_osm_pct": 0.0, "cv_outside_osm_pct": 100.0, "method": "exg", "zoom": 17, "exg_threshold": 0.179 }, "geometry": { "type": "Polygon", "coordinates": [ [ [ -71.07879638671875, -33.754031498216385 ], [ -71.07879638671875, -33.747180448149855 ], [ -71.0870361328125, -33.747180448149855 ], [ -71.0870361328125, -33.754031498216385 ], [ -71.07879638671875, -33.754031498216385 ] ] ] } },
{ "type": "Feature", "properties": { "name": "La Cisterna", "sample_id": 14, "cv_green_pct": 2.72, "osm_green_pct": 6.51, "cv_inside_osm_pct": 37.47, "cv_outside_osm_pct": 62.53, "method": "exg", "zoom": 17, "exg_threshold": 0.447 }, "geometry": { "type": "Polygon", "coordinates": [ [ [ -70.67230224609375, -33.527658137677342 ], [ -70.67230224609375, -33.520789053588487 ], [ -70.6805419921875, -33.520789053588487 ], [ -70.6805419921875, -33.527658137677342 ], [ -70.67230224609375, -33.527658137677342 ] ] ] } },
{ "type": "Feature", "properties": { "name": "La Florida", "sample_id": 15, "cv_green_pct": 0.77, "osm_green_pct": 0.0, "cv_inside_osm_pct": 0.0, "cv_outside_osm_pct": 100.0, "method": "exg", "zoom": 17, "exg_threshold": 0.236 }, "geometry": { "type": "Polygon", "coordinates": [ [ [ -70.46356201171875, -33.5093393678006 ], [ -70.46356201171875, -33.502468829034314 ], [ -70.4718017578125, -33.502468829034314 ], [ -70.4718017578125, -33.5093393678006 ], [ -70.46356201171875, -33.5093393678006 ] ] ] } },
{ "type": "Feature", "properties": { "name": "La Granja", "sample_id": 16, "cv_green_pct": 1.17, "osm_green_pct": 1.11, "cv_inside_osm_pct": 6.05, "cv_outside_osm_pct": 93.95, "method": "exg", "zoom": 17, "exg_threshold": 0.377 }, "geometry": { "type": "Polygon", "coordinates": [ [ [ -70.62286376953125, -33.550551143844068 ], [ -70.62286376953125, -33.543683878655912 ], [ -70.631103515625, -33.543683878655912 ], [ -70.631103515625, -33.550551143844068 ], [ -70.62286376953125, -33.550551143844068 ] ] ] } },
{ "type": "Feature", "properties": { "name": "La Pintana", "sample_id": 17, "cv_green_pct": 10.45, "osm_green_pct": 2.55, "cv_inside_osm_pct": 0.0, "cv_outside_osm_pct": 100.0, "method": "exg", "zoom": 17, "exg_threshold": 0.213 }, "geometry": { "type": "Polygon", "coordinates": [ [ [ -70.6146240234375, -33.582591163939171 ], [ -70.6146240234375, -33.575726446243578 ], [ -70.62286376953125, -33.575726446243578 ], [ -70.62286376953125, -33.582591163939171 ], [ -70.6146240234375, -33.582591163939171 ] ] ] } },
{ "type": "Feature", "properties": { "name": "La Reina", "sample_id": 18, "cv_green_pct": 10.06, "osm_green_pct": 0.0, "cv_inside_osm_pct": 0.0, "cv_outside_osm_pct": 100.0, "method": "exg", "zoom": 17, "exg_threshold": 0.159 }, "geometry": { "type": "Polygon", "coordinates": [ [ [ -70.51025390625, -33.440609443703572 ], [ -70.51025390625, -33.433733453417013 ], [ -70.51849365234375, -33.433733453417013 ], [ -70.51849365234375, -33.440609443703572 ], [ -70.51025390625, -33.440609443703572 ] ] ] } },
{ "type": "Feature", "properties": { "name": "Lampa", "sample_id": 19, "cv_green_pct": 1.69, "osm_green_pct": 0.0, "cv_inside_osm_pct": 0.0, "cv_outside_osm_pct": 100.0, "method": "exg", "zoom": 17, "exg_threshold": 0.447 }, "geometry": { "type": "Polygon", "coordinates": [ [ [ -70.8673095703125, -33.266249890762737 ], [ -70.8673095703125, -33.25936011503665 ], [ -70.87554931640625, -33.25936011503665 ], [ -70.87554931640625, -33.266249890762737 ], [ -70.8673095703125, -33.266249890762737 ] ] ] } },
{ "type": "Feature", "properties": { "name": "Las Condes", "sample_id": 20, "cv_green_pct": 2.76, "osm_green_pct": 0.0, "cv_inside_osm_pct": 0.0, "cv_outside_osm_pct": 100.0, "method": "exg", "zoom": 17, "exg_threshold": 0.05 }, "geometry": { "type": "Polygon", "coordinates": [ [ [ -70.4827880859375, -33.4314413355753 ], [ -70.4827880859375, -33.42456461884057 ], [ -70.49102783203125, -33.42456461884057 ], [ -70.49102783203125, -33.4314413355753 ], [ -70.4827880859375, -33.4314413355753 ] ] ] } },
{ "type": "Feature", "properties": { "name": "Lo Barnechea", "sample_id": 21, "cv_green_pct": 2.1, "osm_green_pct": 0.0, "cv_inside_osm_pct": 0.0, "cv_outside_osm_pct": 100.0, "method": "exg", "zoom": 17, "exg_threshold": 0.225 }, "geometry": { "type": "Polygon", "coordinates": [ [ [ -70.3564453125, -33.192730941906916 ], [ -70.3564453125, -33.185835372649429 ], [ -70.36468505859375, -33.185835372649429 ], [ -70.36468505859375, -33.192730941906916 ], [ -70.3564453125, -33.192730941906916 ] ] ] } },
{ "type": "Feature", "properties": { "name": "Lo Espejo", "sample_id": 22, "cv_green_pct": 1.27, "osm_green_pct": 1.86, "cv_inside_osm_pct": 17.72, "cv_outside_osm_pct": 82.28, "method": "exg", "zoom": 17, "exg_threshold": 0.342 }, "geometry": { "type": "Polygon", "coordinates": [ [ [ -70.6805419921875, -33.523078808904202 ], [ -70.6805419921875, -33.516209361109048 ], [ -70.68878173828125, -33.516209361109048 ], [ -70.68878173828125, -33.523078808904202 ], [ -70.6805419921875, -33.523078808904202 ] ] ] } },
{ "type": "Feature", "properties": { "name": "Lo Prado", "sample_id": 23, "cv_green_pct": 1.82, "osm_green_pct": 3.48, "cv_inside_osm_pct": 42.14, "cv_outside_osm_pct": 57.86, "method": "exg", "zoom": 17, "exg_threshold": 0.33 }, "geometry": { "type": "Polygon", "coordinates": [ [ [ -70.71624755859375, -33.454359789517014 ], [ -70.71624755859375, -33.447484889088841 ], [ -70.7244873046875, -33.447484889088841 ], [ -70.7244873046875, -33.454359789517014 ], [ -70.71624755859375, -33.454359789517014 ] ] ] } },
{ "type": "Feature", "properties": { "name": "Macul", "sample_id": 24, "cv_green_pct": 7.95, "osm_green_pct": 2.38, "cv_inside_osm_pct": 20.88, "cv_outside_osm_pct": 79.12, "method": "exg", "zoom": 17, "exg_threshold": 0.213 }, "geometry": { "type": "Polygon", "coordinates": [ [ [ -70.609130859375, -33.497888166852071 ], [ -70.609130859375, -33.491016719112736 ], [ -70.61737060546875, -33.491016719112736 ], [ -70.61737060546875, -33.497888166852071 ], [ -70.609130859375, -33.497888166852071 ] ] ] } },
{ "type": "Feature", "properties": { "name": "Maipú", "sample_id": 25, "cv_green_pct": 26.9, "osm_green_pct": 0.0, "cv_inside_osm_pct": 0.0, "cv_outside_osm_pct": 100.0, "method": "exg", "zoom": 17, "exg_threshold": 0.213 }, "geometry": { "type": "Polygon", "coordinates": [ [ [ -70.7464599609375, -33.548262116088623 ], [ -70.7464599609375, -33.541394668982747 ], [ -70.75469970703125, -33.541394668982747 ], [ -70.75469970703125, -33.548262116088623 ], [ -70.7464599609375, -33.548262116088623 ] ] ] } },
{ "type": "Feature", "properties": { "name": "María Pinto", "sample_id": 26, "cv_green_pct": 14.59, "osm_green_pct": 0.0, "cv_inside_osm_pct": 0.0, "cv_outside_osm_pct": 100.0, "method": "exg", "zoom": 17, "exg_threshold": 0.085 }, "geometry": { "type": "Polygon", "coordinates": [ [ [ -71.24908447265625, -33.470399104258519 ], [ -71.24908447265625, -33.463525475613785 ], [ -71.25732421875, -33.463525475613785 ], [ -71.25732421875, -33.470399104258519 ], [ -71.24908447265625, -33.470399104258519 ] ] ] } },
{ "type": "Feature", "properties": { "name": "Melipilla", "sample_id": 27, "cv_green_pct": 16.73, "osm_green_pct": 0.0, "cv_inside_osm_pct": 0.0, "cv_outside_osm_pct": 100.0, "method": "exg", "zoom": 17, "exg_threshold": 0.219 }, "geometry": { "type": "Polygon", "coordinates": [ [ [ -71.1529541015625, -33.632915738704767 ], [ -71.1529541015625, -33.626055026635278 ], [ -71.16119384765625, -33.626055026635278 ], [ -71.16119384765625, -33.632915738704767 ], [ -71.1529541015625, -33.632915738704767 ] ] ] } },
{ "type": "Feature", "properties": { "name": "Padre Hurtado", "sample_id": 28, "cv_green_pct": 8.08, "osm_green_pct": 7.46, "cv_inside_osm_pct": 11.6, "cv_outside_osm_pct": 88.4, "method": "exg", "zoom": 17, "exg_threshold": 0.365 }, "geometry": { "type": "Polygon", "coordinates": [ [ [ -70.83160400390625, -33.566572640004097 ], [ -70.83160400390625, -33.559706648411975 ], [ -70.83984375, -33.559706648411975 ], [ -70.83984375, -33.566572640004097 ], [ -70.83160400390625, -33.566572640004097 ] ] ] } },
{ "type": "Feature", "properties": { "name": "Paine", "sample_id": 29, "cv_green_pct": 19.83, "osm_green_pct": 0.0, "cv_inside_osm_pct": 0.0, "cv_outside_osm_pct": 100.0, "method": "exg", "zoom": 17, "exg_threshold": 0.107 }, "geometry": { "type": "Polygon", "coordinates": [ [ [ -70.6146240234375, -33.877256739300165 ], [ -70.6146240234375, -33.870415550941829 ], [ -70.62286376953125, -33.870415550941829 ], [ -70.62286376953125, -33.877256739300165 ], [ -70.6146240234375, -33.877256739300165 ] ] ] } },
{ "type": "Feature", "properties": { "name": "Pedro Aguirre Cerda", "sample_id": 30, "cv_green_pct": 4.01, "osm_green_pct": 6.47, "cv_inside_osm_pct": 22.34, "cv_outside_osm_pct": 77.66, "method": "exg", "zoom": 17, "exg_threshold": 0.26 }, "geometry": { "type": "Polygon", "coordinates": [ [ [ -70.68328857421875, -33.495597744865691 ], [ -70.68328857421875, -33.488726115350268 ], [ -70.6915283203125, -33.488726115350268 ], [ -70.6915283203125, -33.495597744865691 ], [ -70.68328857421875, -33.495597744865691 ] ] ] } },
{ "type": "Feature", "properties": { "name": "Peñaflor", "sample_id": 31, "cv_green_pct": 9.54, "osm_green_pct": 0.0, "cv_inside_osm_pct": 0.0, "cv_outside_osm_pct": 100.0, "method": "exg", "zoom": 17, "exg_threshold": 0.471 }, "geometry": { "type": "Polygon", "coordinates": [ [ [ -70.894775390625, -33.623768001188118 ], [ -70.894775390625, -33.616906560603155 ], [ -70.90301513671875, -33.616906560603155 ], [ -70.90301513671875, -33.623768001188118 ], [ -70.894775390625, -33.623768001188118 ] ] ] } },
{ "type": "Feature", "properties": { "name": "Peñalolén", "sample_id": 32, "cv_green_pct": 16.12, "osm_green_pct": 1.08, "cv_inside_osm_pct": 3.5, "cv_outside_osm_pct": 96.5, "method": "exg", "zoom": 17, "exg_threshold": 0.14 }, "geometry": { "type": "Polygon", "coordinates": [ [ [ -70.54046630859375, -33.481853940543587 ], [ -70.54046630859375, -33.474981220501277 ], [ -70.5487060546875, -33.474981220501277 ], [ -70.5487060546875, -33.481853940543587 ], [ -70.54046630859375, -33.481853940543587 ] ] ] } },
{ "type": "Feature", "properties": { "name": "Pirque", "sample_id": 33, "cv_green_pct": 4.05, "osm_green_pct": 0.0, "cv_inside_osm_pct": 0.0, "cv_outside_osm_pct": 100.0, "method": "exg", "zoom": 17, "exg_threshold": 0.05 }, "geometry": { "type": "Polygon", "coordinates": [ [ [ -70.4498291015625, -33.662639175762166 ], [ -70.4498291015625, -33.655780832040939 ], [ -70.45806884765625, -33.655780832040939 ], [ -70.45806884765625, -33.662639175762166 ], [ -70.4498291015625, -33.662639175762166 ] ] ] } },
{ "type": "Feature", "properties": { "name": "Providencia", "sample_id": 34, "cv_green_pct": 11.75, "osm_green_pct": 10.1, "cv_inside_osm_pct": 31.57, "cv_outside_osm_pct": 68.43, "method": "exg", "zoom": 17, "exg_threshold": 0.342 }, "geometry": { "type": "Polygon", "coordinates": [ [ [ -70.609130859375, -33.442901319379331 ], [ -70.609130859375, -33.436025510720327 ], [ -70.61737060546875, -33.436025510720327 ], [ -70.61737060546875, -33.442901319379331 ], [ -70.609130859375, -33.442901319379331 ] ] ] } },
{ "type": "Feature", "properties": { "name": "Pudahuel", "sample_id": 35, "cv_green_pct": 21.44, "osm_green_pct": 0.39, "cv_inside_osm_pct": 0.88, "cv_outside_osm_pct": 99.12, "method": "exg", "zoom": 17, "exg_threshold": 0.119 }, "geometry": { "type": "Polygon", "coordinates": [ [ [ -70.84808349609375, -33.463525475613785 ], [ -70.84808349609375, -33.456651301881848 ], [ -70.8563232421875, -33.456651301881848 ], [ -70.8563232421875, -33.463525475613785 ], [ -70.84808349609375, -33.463525475613785 ] ] ] } },
{ "type": "Feature", "properties": { "name": "Puente Alto", "sample_id": 36, "cv_green_pct": 0.9, "osm_green_pct": 4.94, "cv_inside_osm_pct": 46.82, "cv_outside_osm_pct": 53.18, "method": "exg", "zoom": 17, "exg_threshold": 0.471 }, "geometry": { "type": "Polygon", "coordinates": [ [ [ -70.5816650390625, -33.587167339046566 ], [ -70.5816650390625, -33.580302985376541 ], [ -70.58990478515625, -33.580302985376541 ], [ -70.58990478515625, -33.587167339046566 ], [ -70.5816650390625, -33.587167339046566 ] ] ] } },
{ "type": "Feature", "properties": { "name": "Quilicura", "sample_id": 37, "cv_green_pct": 4.75, "osm_green_pct": 0.0, "cv_inside_osm_pct": 0.0, "cv_outside_osm_pct": 100.0, "method": "exg", "zoom": 17, "exg_threshold": 0.166 }, "geometry": { "type": "Polygon", "coordinates": [ [ [ -70.70526123046875, -33.342001541915593 ], [ -70.70526123046875, -33.335117747532173 ], [ -70.7135009765625, -33.335117747532173 ], [ -70.7135009765625, -33.342001541915593 ], [ -70.70526123046875, -33.342001541915593 ] ] ] } },
{ "type": "Feature", "properties": { "name": "Quinta Normal", "sample_id": 38, "cv_green_pct": 3.17, "osm_green_pct": 0.0, "cv_inside_osm_pct": 0.0, "cv_outside_osm_pct": 100.0, "method": "exg", "zoom": 17, "exg_threshold": 0.389 }, "geometry": { "type": "Polygon", "coordinates": [ [ [ -70.697021484375, -33.426856918285004 ], [ -70.697021484375, -33.41997983836346 ], [ -70.70526123046875, -33.41997983836346 ], [ -70.70526123046875, -33.426856918285004 ], [ -70.697021484375, -33.426856918285004 ] ] ] } },
{ "type": "Feature", "properties": { "name": "Recoleta", "sample_id": 39, "cv_green_pct": 6.54, "osm_green_pct": 1.82, "cv_inside_osm_pct": 7.98, "cv_outside_osm_pct": 92.02, "method": "exg", "zoom": 17, "exg_threshold": 0.143 }, "geometry": { "type": "Polygon", "coordinates": [ [ [ -70.6256103515625, -33.401638295582487 ], [ -70.6256103515625, -33.394759218577981 ], [ -70.63385009765625, -33.394759218577981 ], [ -70.63385009765625, -33.401638295582487 ], [ -70.6256103515625, -33.401638295582487 ] ] ] } },
{ "type": "Feature", "properties": { "name": "Renca", "sample_id": 40, "cv_green_pct": 13.3, "osm_green_pct": 0.0, "cv_inside_osm_pct": 0.0, "cv_outside_osm_pct": 100.0, "method": "exg", "zoom": 17, "exg_threshold": 0.404 }, "geometry": { "type": "Polygon", "coordinates": [ [ [ -70.7684326171875, -33.408516828002675 ], [ -70.7684326171875, -33.401638295582487 ], [ -70.77667236328125, -33.401638295582487 ], [ -70.77667236328125, -33.408516828002675 ], [ -70.7684326171875, -33.408516828002675 ] ] ] } },
{ "type": "Feature", "properties": { "name": "San Bernardo", "sample_id": 41, "cv_green_pct": 14.46, "osm_green_pct": 0.0, "cv_inside_osm_pct": 0.0, "cv_outside_osm_pct": 100.0, "method": "exg", "zoom": 17, "exg_threshold": 0.061 }, "geometry": { "type": "Polygon", "coordinates": [ [ [ -70.63385009765625, -33.648921941686538 ], [ -70.63385009765625, -33.642062504753696 ], [ -70.64208984375, -33.642062504753696 ], [ -70.64208984375, -33.648921941686538 ], [ -70.63385009765625, -33.648921941686538 ] ] ] } },
{ "type": "Feature", "properties": { "name": "San Joaquín", "sample_id": 42, "cv_green_pct": 8.38, "osm_green_pct": 1.56, "cv_inside_osm_pct": 4.25, "cv_outside_osm_pct": 95.75, "method": "exg", "zoom": 17, "exg_threshold": 0.154 }, "geometry": { "type": "Polygon", "coordinates": [ [ [ -70.62286376953125, -33.497888166852071 ], [ -70.62286376953125, -33.491016719112736 ], [ -70.631103515625, -33.491016719112736 ], [ -70.631103515625, -33.497888166852071 ], [ -70.62286376953125, -33.497888166852071 ] ] ] } },
{ "type": "Feature", "properties": { "name": "San José de Maipo", "sample_id": 43, "cv_green_pct": 1.68, "osm_green_pct": 0.0, "cv_inside_osm_pct": 0.0, "cv_outside_osm_pct": 100.0, "method": "exg", "zoom": 17, "exg_threshold": 0.11 }, "geometry": { "type": "Polygon", "coordinates": [ [ [ -70.15594482421875, -33.961586289799079 ], [ -70.15594482421875, -33.954751868571911 ], [ -70.1641845703125, -33.954751868571911 ], [ -70.1641845703125, -33.961586289799079 ], [ -70.15594482421875, -33.961586289799079 ] ] ] } },
{ "type": "Feature", "properties": { "name": "San Miguel", "sample_id": 44, "cv_green_pct": 1.32, "osm_green_pct": 0.38, "cv_inside_osm_pct": 0.15, "cv_outside_osm_pct": 99.85, "method": "exg", "zoom": 17, "exg_threshold": 0.611 }, "geometry": { "type": "Polygon", "coordinates": [ [ [ -70.65582275390625, -33.500178528242294 ], [ -70.65582275390625, -33.493307262285235 ], [ -70.6640625, -33.493307262285235 ], [ -70.6640625, -33.500178528242294 ], [ -70.65582275390625, -33.500178528242294 ] ] ] } },
{ "type": "Feature", "properties": { "name": "San Pedro", "sample_id": 45, "cv_green_pct": 25.04, "osm_green_pct": 0.0, "cv_inside_osm_pct": 0.0, "cv_outside_osm_pct": 100.0, "method": "exg", "zoom": 17, "exg_threshold": 0.063 }, "geometry": { "type": "Polygon", "coordinates": [ [ [ -71.4276123046875, -33.963864308201551 ], [ -71.4276123046875, -33.957030069982295 ], [ -71.43585205078125, -33.957030069982295 ], [ -71.43585205078125, -33.963864308201551 ], [ -71.4276123046875, -33.963864308201551 ] ] ] } },
{ "type": "Feature", "properties": { "name": "San Ramón", "sample_id": 46, "cv_green_pct": 4.74, "osm_green_pct": 0.62, "cv_inside_osm_pct": 3.19, "cv_outside_osm_pct": 96.81, "method": "exg", "zoom": 17, "exg_threshold": 0.318 }, "geometry": { "type": "Polygon", "coordinates": [ [ [ -70.64483642578125, -33.541394668982747 ], [ -70.64483642578125, -33.534526676160539 ], [ -70.653076171875, -33.534526676160539 ], [ -70.653076171875, -33.541394668982747 ], [ -70.64483642578125, -33.541394668982747 ] ] ] } },
{ "type": "Feature", "properties": { "name": "Santiago", "sample_id": 47, "cv_green_pct": 5.18, "osm_green_pct": 22.81, "cv_inside_osm_pct": 68.18, "cv_outside_osm_pct": 31.82, "method": "exg", "zoom": 17, "exg_threshold": 0.412 }, "geometry": { "type": "Polygon", "coordinates": [ [ [ -70.6695556640625, -33.4314413355753 ], [ -70.6695556640625, -33.42456461884057 ], [ -70.67779541015625, -33.42456461884057 ], [ -70.67779541015625, -33.4314413355753 ], [ -70.6695556640625, -33.4314413355753 ] ] ] } },
{ "type": "Feature", "properties": { "name": "Talagante", "sample_id": 48, "cv_green_pct": 30.0, "osm_green_pct": 0.0, "cv_inside_osm_pct": 0.0, "cv_outside_osm_pct": 100.0, "method": "exg", "zoom": 17, "exg_threshold": 0.307 }, "geometry": { "type": "Polygon", "coordinates": [ [ [ -70.982666015625, -33.722055248687298 ], [ -70.982666015625, -33.715201644740851 ], [ -70.99090576171875, -33.715201644740851 ], [ -70.99090576171875, -33.722055248687298 ], [ -70.982666015625, -33.722055248687298 ] ] ] } },
{ "type": "Feature", "properties": { "name": "Tiltil", "sample_id": 49, "cv_green_pct": 13.98, "osm_green_pct": 0.0, "cv_inside_osm_pct": 0.0, "cv_outside_osm_pct": 100.0, "method": "exg", "zoom": 17, "exg_threshold": 0.072 }, "geometry": { "type": "Polygon", "coordinates": [ [ [ -70.74920654296875, -32.957977414059513 ], [ -70.74920654296875, -32.951063421523806 ], [ -70.7574462890625, -32.951063421523806 ], [ -70.7574462890625, -32.957977414059513 ], [ -70.74920654296875, -32.957977414059513 ] ] ] } },
{ "type": "Feature", "properties": { "name": "Vitacura", "sample_id": 50, "cv_green_pct": 13.41, "osm_green_pct": 2.69, "cv_inside_osm_pct": 6.37, "cv_outside_osm_pct": 93.63, "method": "exg", "zoom": 17, "exg_threshold": 0.185 }, "geometry": { "type": "Polygon", "coordinates": [ [ [ -70.5596923828125, -33.394759218577981 ], [ -70.5596923828125, -33.387879597045199 ], [ -70.56793212890625, -33.387879597045199 ], [ -70.56793212890625, -33.394759218577981 ], [ -70.5596923828125, -33.394759218577981 ] ] ] } },
{ "type": "Feature", "properties": { "name": "Ñuñoa", "sample_id": 51, "cv_green_pct": 14.47, "osm_green_pct": 3.69, "cv_inside_osm_pct": 13.18, "cv_outside_osm_pct": 86.82, "method": "exg", "zoom": 17, "exg_threshold": 0.248 }, "geometry": { "type": "Polygon", "coordinates": [ [ [ -70.5816650390625, -33.452068216595187 ], [ -70.5816650390625, -33.44519313450845 ], [ -70.58990478515625, -33.44519313450845 ], [ -70.58990478515625, -33.452068216595187 ], [ -70.5816650390625, -33.452068216595187 ] ] ] } }
]
}
