{
"type": "FeatureCollection",
"name": "spatial_units",
"crs": { "type": "name", "properties": { "name": "urn:ogc:def:crs:OGC:1.3:CRS84" } },
"features": [
{ "type": "Feature", "properties": { "unit_id": "pv_ES211", "unit_name": "Araba/Álava", "unit_type": "provincia", "unit_source": "GISCO", "NUTS_ID": "ES211", "NAME_LATN": "Araba/Álava" }, "geometry": { "type": "MultiPolygon", "coordinates": [ [ [ [ -3.010373057999971, 43.200467337000077 ], [ -3.006829919999973, 43.196667650000052 ], [ -3.000662213999931, 43.197955950000051 ], [ -2.981526163999945, 43.201953055000047 ], [ -2.975534306999975, 43.190975092000031 ], [ -2.972946778999926, 43.186234360000071 ], [ -2.960075348999965, 43.175232052000069 ], [ -2.957293087999972, 43.174103496000043 ], [ -2.947421984999949, 43.170099525000069 ], [ -2.950665896999965, 43.163855961000081 ], [ -2.952909494999972, 43.159537705000048 ], [ -2.944912681999938, 43.151375841000061 ], [ -2.939480183999933, 43.145831219000058 ], [ -2.938497136999956, 43.145254978000025 ], [ -2.937082217999944, 43.135236619000068 ], [ -2.955074850999949, 43.115319656000054 ], [ -2.965196854999931, 43.104115093000075 ], [ -2.975119842999959, 43.099038900000039 ], [ -2.972690565999926, 43.09505940300005 ], [ -2.958767895999927, 43.090417802000047 ], [ -2.953143496999928, 43.086778174000074 ], [ -2.93048319299993, 43.072114369000076 ], [ -2.91782862499997, 43.059687249000035 ], [ -2.890182534999951, 43.045716531000039 ], [ -2.889122222999958, 43.048366342000065 ], [ -2.887860764999971, 43.048824245000048 ], [ -2.886145058999944, 43.04944703700005 ], [ -2.88009434099996, 43.051106914000059 ], [ -2.875986943999976, 43.051263483000071 ], [ -2.874086573999932, 43.051033921000055 ], [ -2.870229895999955, 43.051030636000064 ], [ -2.864169187999948, 43.051736108000057 ], [ -2.855032926999968, 43.048346633000051 ], [ -2.847967345999962, 43.044493418000059 ], [ -2.83611512899995, 43.041682467000044 ], [ -2.830934276999926, 43.039493436000043 ], [ -2.821712270999967, 43.035596923000071 ], [ -2.811417307999932, 43.035984977000055 ], [ -2.80818931999994, 43.035765315000049 ], [ -2.806712580999942, 43.035664824000037 ], [ -2.804672877999963, 43.035188936000054 ], [ -2.800424128999964, 43.034197649000077 ], [ -2.798885329999962, 43.034240300000079 ], [ -2.788978455999938, 43.034514889000036 ], [ -2.786690938999925, 43.03434763000007 ], [ -2.78120966299997, 43.033946849000074 ], [ -2.77474990199994, 43.031097446000047 ], [ -2.774360933999958, 43.030220512000028 ], [ -2.773800465999955, 43.02895692900006 ], [ -2.751473005999969, 43.027148914000065 ], [ -2.750721125999974, 43.02800028200005 ], [ -2.746436476999975, 43.032851875000063 ], [ -2.740300498999943, 43.033326762000058 ], [ -2.732467132999943, 43.027350378000051 ], [ -2.728957068999932, 43.02467241100004 ], [ -2.723048787999971, 43.027015053000071 ], [ -2.71489380099996, 43.030248516000029 ], [ -2.707624630999931, 43.030055491000041 ], [ -2.697499411999956, 43.026105407000045 ], [ -2.686609183999963, 43.021856876000072 ], [ -2.680761736999955, 43.024198458000058 ], [ -2.678218412999968, 43.02541893800003 ], [ -2.676115943999946, 43.026427862000048 ], [ -2.66613307199998, 43.030530266000028 ], [ -2.647095671999978, 43.02431086200005 ], [ -2.633624564999934, 43.019909932000076 ], [ -2.631215374999954, 43.027959567000039 ], [ -2.63442620099994, 43.044459486000051 ], [ -2.648042218999933, 43.055319429000065 ], [ -2.661133234999966, 43.065760638000029 ], [ -2.65881286399997, 43.07491710100004 ], [ -2.633816759999945, 43.086256541000068 ], [ -2.625004914999977, 43.085393020000026 ], [ -2.623969385999942, 43.085291543000039 ], [ -2.589489309999976, 43.081291622000037 ], [ -2.553152181999963, 43.086778174000074 ], [ -2.547264350999967, 43.08766717900005 ], [ -2.546386833999975, 43.08800894500007 ], [ -2.542912429999944, 43.078664379000031 ], [ -2.545413039999971, 43.072121111000058 ], [ -2.533248451999953, 43.057497700000056 ], [ -2.52860226599995, 43.051912383000058 ], [ -2.526905666999937, 43.048752124000032 ], [ -2.52474209199994, 43.045266490000074 ], [ -2.531004436999979, 43.041907044000027 ], [ -2.533397717999947, 43.040623164000067 ], [ -2.537412300999961, 43.034195197000031 ], [ -2.544331445999944, 43.023116581000068 ], [ -2.556278032999955, 43.020021239000073 ], [ -2.564294816999961, 43.017944102000058 ], [ -2.567629549999936, 43.016125118000048 ], [ -2.570189295999967, 43.014728863000073 ], [ -2.581265476999931, 43.008687179000049 ], [ -2.586698577999925, 43.008448101000056 ], [ -2.596830921999981, 43.008002239000064 ], [ -2.600079620999963, 43.000679571000035 ], [ -2.59759868499998, 42.995860996000033 ], [ -2.593040048999967, 42.98700702900004 ], [ -2.598481039999967, 42.984292814000071 ], [ -2.602713706999964, 42.982181366000077 ], [ -2.596830300999954, 42.975929144000077 ], [ -2.579845929999976, 42.964376913000081 ], [ -2.559571323999933, 42.960275945000035 ], [ -2.551186454999936, 42.958579928000063 ], [ -2.550638486999958, 42.957571917000053 ], [ -2.548198303999925, 42.953083088000028 ], [ -2.54393474099993, 42.950609522000036 ], [ -2.541158444999951, 42.952639662000081 ], [ -2.540418403999979, 42.960108021000053 ], [ -2.539880710999967, 42.965534326000068 ], [ -2.535331223999947, 42.973400086000026 ], [ -2.516835425999943, 42.965707842000029 ], [ -2.50284120699996, 42.959887766000065 ], [ -2.489430012999946, 42.963276898000061 ], [ -2.483231113999977, 42.964843416000065 ], [ -2.478845029999945, 42.965867838000065 ], [ -2.47280726799994, 42.963871153000071 ], [ -2.451971920999938, 42.956980913000052 ], [ -2.44490456699998, 42.958064917000058 ], [ -2.422729176999951, 42.956066714000031 ], [ -2.419925655999975, 42.95655101300008 ], [ -2.407283903999939, 42.958734836000076 ], [ -2.388185312999951, 42.952157355000054 ], [ -2.384835887999941, 42.951003826000033 ], [ -2.363098012999956, 42.947050592000039 ], [ -2.359784772999944, 42.948226009000052 ], [ -2.354825520999952, 42.949985371000025 ], [ -2.353086968999946, 42.948677001000078 ], [ -2.351949244999958, 42.947166437000078 ], [ -2.351754849999963, 42.945434340000077 ], [ -2.351691532999951, 42.944870177000041 ], [ -2.350931884999966, 42.942569445000061 ], [ -2.339044207999962, 42.936348664000036 ], [ -2.331485250999947, 42.934093973000074 ], [ -2.322988700999929, 42.931559616000072 ], [ -2.31556347999998, 42.928823221000073 ], [ -2.301955299999975, 42.923808238000049 ], [ -2.296501993999925, 42.915279425000051 ], [ -2.288679853999952, 42.903045825000049 ], [ -2.250807096999949, 42.895691176000071 ], [ -2.251731054999937, 42.892286741000078 ], [ -2.249361657999941, 42.890591325000059 ], [ -2.241699418999929, 42.885108629000058 ], [ -2.240256276999958, 42.864776490000054 ], [ -2.235963731999959, 42.850925498000038 ], [ -2.232710377999979, 42.843780352000067 ], [ -2.235834376999946, 42.834450101000073 ], [ -2.241713287999971, 42.830105123000067 ], [ -2.252973168999972, 42.820640562000051 ], [ -2.253974530999926, 42.820064530000025 ], [ -2.256348386999946, 42.81869897200005 ], [ -2.267714148999971, 42.813369911000052 ], [ -2.27043509899994, 42.808883119000029 ], [ -2.27028676599997, 42.802681094000036 ], [ -2.26938286099994, 42.799038016000054 ], [ -2.268932283999959, 42.797222021000039 ], [ -2.268717523999953, 42.794681594000053 ], [ -2.271952398999929, 42.792098915000054 ], [ -2.273797330999969, 42.79114893700006 ], [ -2.275086518999956, 42.790070268000079 ], [ -2.281032721999964, 42.785095051000042 ], [ -2.278838181999959, 42.783435324000038 ], [ -2.278063049999957, 42.781783984000072 ], [ -2.275333608999972, 42.778945995000072 ], [ -2.275594816999956, 42.776237651000031 ], [ -2.273705433999964, 42.770740682000053 ], [ -2.273302884999964, 42.768539412000052 ], [ -2.270823427999971, 42.763857637000058 ], [ -2.263411966999968, 42.749863121000033 ], [ -2.273456212999974, 42.741832328000044 ], [ -2.285480835999977, 42.742510622000054 ], [ -2.306326360999947, 42.73578287600003 ], [ -2.310698253999931, 42.737244525000051 ], [ -2.316869059999931, 42.739307602000054 ], [ -2.316956461999951, 42.735732902000052 ], [ -2.318585135999967, 42.733177479000062 ], [ -2.318327924999949, 42.730060645000037 ], [ -2.319783293999933, 42.728698449000035 ], [ -2.32357903999997, 42.720806811000045 ], [ -2.318886537999958, 42.717933234000043 ], [ -2.31771830699995, 42.717217837000078 ], [ -2.313377680999963, 42.708483720000061 ], [ -2.312797066999963, 42.689235336000081 ], [ -2.313768506999963, 42.687089294000032 ], [ -2.315750145999971, 42.68271158500005 ], [ -2.309223866999957, 42.672473701000058 ], [ -2.302507134999928, 42.676430842000059 ], [ -2.302351820999945, 42.67652234500008 ], [ -2.293573114999958, 42.676511728000037 ], [ -2.288718847999974, 42.657608552000056 ], [ -2.293354412999975, 42.650826008000081 ], [ -2.306456408999964, 42.652103778000026 ], [ -2.308092572999954, 42.652263345000051 ], [ -2.32325140699993, 42.647827001000053 ], [ -2.331485250999947, 42.645728742000074 ], [ -2.335446450999939, 42.64280214200005 ], [ -2.347309443999961, 42.634037567000064 ], [ -2.365963038999951, 42.637004907000062 ], [ -2.381967601999975, 42.634262070000034 ], [ -2.373149253999941, 42.642463354000029 ], [ -2.380276631999948, 42.647331941000061 ], [ -2.379580978999968, 42.64907515200008 ], [ -2.378438740999968, 42.651937446000034 ], [ -2.394622861999949, 42.66054820200003 ], [ -2.417316984999957, 42.66132359900007 ], [ -2.428081107999958, 42.658566927000038 ], [ -2.430008261999944, 42.65421716600008 ], [ -2.433319051999945, 42.653881071000058 ], [ -2.440608381999937, 42.65066915500006 ], [ -2.442586165999955, 42.650390346000052 ], [ -2.44415840399995, 42.649352971000042 ], [ -2.450092253999969, 42.647220496000045 ], [ -2.451699451999957, 42.645046067000067 ], [ -2.453131846999952, 42.641731561000029 ], [ -2.45501623499996, 42.639560982000035 ], [ -2.454770573999951, 42.636727093000047 ], [ -2.45460619499994, 42.634830856000065 ], [ -2.464536065999937, 42.627284836000058 ], [ -2.46881119699998, 42.627247601000079 ], [ -2.471075736999978, 42.627227878000042 ], [ -2.472571941999945, 42.624708543000054 ], [ -2.472670449999953, 42.624542674000054 ], [ -2.473476380999955, 42.624097913000071 ], [ -2.474288635999926, 42.623649663000037 ], [ -2.474456687999975, 42.623436061000064 ], [ -2.478109353999969, 42.618793369000059 ], [ -2.478999356999964, 42.615906020000068 ], [ -2.481206382999972, 42.614421865000054 ], [ -2.483089771999971, 42.612125362000029 ], [ -2.488645298999927, 42.613856656000053 ], [ -2.49073969899996, 42.614509343000066 ], [ -2.500101706999942, 42.616443365000066 ], [ -2.499371025999949, 42.611522552000054 ], [ -2.490648800999963, 42.585323376000076 ], [ -2.483794509999939, 42.588429666000025 ], [ -2.482322244999978, 42.589096880000056 ], [ -2.463498453999932, 42.587358724000069 ], [ -2.457805194999935, 42.576081398000042 ], [ -2.453259703999947, 42.567077595000057 ], [ -2.443306043999939, 42.575638535000053 ], [ -2.430280959999948, 42.595167116000027 ], [ -2.423713149999969, 42.605014270000026 ], [ -2.41856708399996, 42.607113044000073 ], [ -2.416949396999939, 42.604125899000053 ], [ -2.411998945999926, 42.600254087000053 ], [ -2.406445668999936, 42.598461106000059 ], [ -2.401155097999947, 42.598297135000053 ], [ -2.399344127999939, 42.597847134000062 ], [ -2.396772010999939, 42.599067350000041 ], [ -2.39746723199994, 42.595436044000053 ], [ -2.398407472999963, 42.594403919000058 ], [ -2.399215271999935, 42.59351717900006 ], [ -2.39933663599993, 42.591106657000068 ], [ -2.400049836999926, 42.589073671000051 ], [ -2.398214393999979, 42.586155160000033 ], [ -2.39800761999993, 42.585262355000054 ], [ -2.390171825999971, 42.551429162000034 ], [ -2.39630610599994, 42.546361838000053 ], [ -2.400210656999946, 42.543136419000064 ], [ -2.395423009999945, 42.526172237000026 ], [ -2.393017206999957, 42.517647701000044 ], [ -2.411221, 42.513917389000028 ], [ -2.422081145999925, 42.511691934000055 ], [ -2.423133055999926, 42.498472842000069 ], [ -2.420719172999952, 42.489269353000054 ], [ -2.437248224999962, 42.489447919000042 ], [ -2.437963625999942, 42.489820847000033 ], [ -2.45063104999997, 42.496424201000025 ], [ -2.471131593999928, 42.492590398000061 ], [ -2.47288065999993, 42.490937528000075 ], [ -2.477432112999963, 42.48663639800003 ], [ -2.51617476399997, 42.491453018000072 ], [ -2.517905612999925, 42.49854939800008 ], [ -2.514586839999936, 42.502310707000049 ], [ -2.505414751999979, 42.512705830000073 ], [ -2.508694179999964, 42.518797678000055 ], [ -2.513798356999928, 42.518020602000036 ], [ -2.52035553199994, 42.507253224000067 ], [ -2.536525273999928, 42.495290614000055 ], [ -2.53714145999993, 42.49011461200007 ], [ -2.536895096999956, 42.489919587000031 ], [ -2.530798390999962, 42.485093330000041 ], [ -2.53737293599994, 42.48317387000003 ], [ -2.545595220999928, 42.48384863800004 ], [ -2.548797631999946, 42.483913094000059 ], [ -2.556006606999972, 42.484980373000042 ], [ -2.557212096999933, 42.485767491000047 ], [ -2.568975500999954, 42.493448339000054 ], [ -2.578037447999975, 42.483699044000048 ], [ -2.589994979999972, 42.482630050000068 ], [ -2.59136093099994, 42.482507935000058 ], [ -2.588081991999957, 42.474768380000057 ], [ -2.595639078999966, 42.472961477000069 ], [ -2.601362934999941, 42.478247361000058 ], [ -2.600926709999953, 42.484531502000038 ], [ -2.597652832999927, 42.488335724000081 ], [ -2.59354917099995, 42.493104151000068 ], [ -2.605380636999939, 42.501536931000032 ], [ -2.608757932999936, 42.498784853000075 ], [ -2.612159326999972, 42.496034850000058 ], [ -2.627970005999941, 42.495209505000048 ], [ -2.629567159999965, 42.493367903000035 ], [ -2.633911078999972, 42.488359138000078 ], [ -2.644531427999937, 42.483395357000063 ], [ -2.648778662999973, 42.485295971000028 ], [ -2.653815435999945, 42.495808354000076 ], [ -2.654067204999933, 42.49643388800007 ], [ -2.656848625999942, 42.50334448600006 ], [ -2.668349647999946, 42.509896406000053 ], [ -2.675374681999926, 42.510464548000073 ], [ -2.677669295999976, 42.510650123000062 ], [ -2.677803567999945, 42.512063934000025 ], [ -2.679026631999932, 42.524942124000063 ], [ -2.690400007999926, 42.520358504000058 ], [ -2.694921367999939, 42.518536336000068 ], [ -2.699732475999951, 42.516929486000038 ], [ -2.705514495999978, 42.516739164000057 ], [ -2.699312446999954, 42.527242060000049 ], [ -2.698697874999937, 42.528452736000077 ], [ -2.69144726199994, 42.542736065000042 ], [ -2.681769107999969, 42.595394866000049 ], [ -2.685661245999938, 42.594931975000065 ], [ -2.68862642299996, 42.596258869000053 ], [ -2.696010219999948, 42.59765033900004 ], [ -2.700216932999979, 42.598443091000036 ], [ -2.704124053999976, 42.599664398000073 ], [ -2.706342068999959, 42.599796380000043 ], [ -2.71577687499996, 42.604913507000049 ], [ -2.721496156999933, 42.608015457000079 ], [ -2.730892451999978, 42.616804140000056 ], [ -2.746436476999975, 42.623351485000057 ], [ -2.75679736799998, 42.619386075000079 ], [ -2.76587634699996, 42.620156874000031 ], [ -2.772902387999977, 42.607312769000032 ], [ -2.772042392999936, 42.596149564000029 ], [ -2.771974264999926, 42.595265228000073 ], [ -2.77889406099996, 42.581584803000055 ], [ -2.786690938999925, 42.578354764000039 ], [ -2.797550788999956, 42.573855816000048 ], [ -2.803664996999942, 42.564503831000025 ], [ -2.808194828999945, 42.567699211000047 ], [ -2.813960606999956, 42.567914525000049 ], [ -2.816075087999934, 42.567993487000081 ], [ -2.816282742999931, 42.566809980000073 ], [ -2.817935195999951, 42.557392007000033 ], [ -2.825204356999961, 42.554896428000063 ], [ -2.827449806999937, 42.562164763000055 ], [ -2.837140255999941, 42.570630718000075 ], [ -2.839943630999926, 42.580406694000033 ], [ -2.831328121999945, 42.58540583100006 ], [ -2.820129433999966, 42.591903855000055 ], [ -2.818620110999973, 42.598176190000061 ], [ -2.823643106999953, 42.601456978000044 ], [ -2.821978971999954, 42.603538452000066 ], [ -2.819463290999977, 42.609081114000048 ], [ -2.818794040999933, 42.612682588000041 ], [ -2.819922276999932, 42.614467074000061 ], [ -2.824317350999934, 42.612720447000072 ], [ -2.826305122999941, 42.612506893000045 ], [ -2.828025694999951, 42.611904087000028 ], [ -2.830661187999965, 42.610760413000037 ], [ -2.834372581999958, 42.60914985200003 ], [ -2.837167449999924, 42.608677139000065 ], [ -2.841799757999979, 42.608598476000054 ], [ -2.846789022999928, 42.617906665000078 ], [ -2.844481693999967, 42.624690563000058 ], [ -2.843052670999953, 42.62889210700007 ], [ -2.858067526999946, 42.63838417900007 ], [ -2.859007472999963, 42.638665614000047 ], [ -2.870573151999963, 42.639552637000065 ], [ -2.895264167999926, 42.653857859000027 ], [ -2.899331281999935, 42.66621381300007 ], [ -2.898638184999925, 42.668919202000041 ], [ -2.896618321999938, 42.676803393000057 ], [ -2.895054573999971, 42.679312672000037 ], [ -2.902341379999939, 42.684370281000042 ], [ -2.905417459999967, 42.693992525000056 ], [ -2.913575606999927, 42.696347625000044 ], [ -2.928441477999968, 42.700639116000048 ], [ -2.92977637499996, 42.704026801000055 ], [ -2.931258136999929, 42.707787198000062 ], [ -2.947010845999955, 42.709653181000078 ], [ -2.972933975999979, 42.708217619000038 ], [ -2.974636026999974, 42.707457960000056 ], [ -2.981227573999945, 42.704516024000043 ], [ -2.986361428999942, 42.708914379000078 ], [ -2.98814291399998, 42.714088928000081 ], [ -2.989840608999941, 42.719020097000055 ], [ -2.995357604999981, 42.720572139000069 ], [ -3.007575048999968, 42.724009150000029 ], [ -3.009754855999972, 42.727870297000038 ], [ -3.007154549999939, 42.73117301800005 ], [ -3.006393316999947, 42.73213988200007 ], [ -3.008673337999937, 42.732537820000061 ], [ -3.015081467999948, 42.733656246000066 ], [ -3.016292839999949, 42.737464865000049 ], [ -3.017192473999955, 42.74029336500007 ], [ -3.024738347999971, 42.738814888000036 ], [ -3.025905576999946, 42.738586191000024 ], [ -3.032921134999981, 42.73721161900005 ], [ -3.040763274999961, 42.738494005000064 ], [ -3.049034221999932, 42.751143737000064 ], [ -3.048551697999926, 42.756977653000035 ], [ -3.047967608999954, 42.764039529000058 ], [ -3.057706286999974, 42.762891424000031 ], [ -3.060370800999976, 42.761844928000073 ], [ -3.060891854999966, 42.761768447000065 ], [ -3.067083251999975, 42.760859670000059 ], [ -3.068847079999955, 42.761620109000035 ], [ -3.080804899999976, 42.766775479000046 ], [ -3.083073953999929, 42.76135482400008 ], [ -3.084266806999949, 42.758505160000027 ], [ -3.08921371699995, 42.76124033800005 ], [ -3.099271094999949, 42.766801127000065 ], [ -3.11336863799994, 42.760789929000055 ], [ -3.115785130999939, 42.759759535000057 ], [ -3.13129631299995, 42.757645564000029 ], [ -3.142848267999966, 42.759972422000033 ], [ -3.131335268999976, 42.777221757000063 ], [ -3.123284291999937, 42.789284123000073 ], [ -3.130130018999978, 42.790100504000065 ], [ -3.131767157999946, 42.790295740000033 ], [ -3.159259473999953, 42.804546604000052 ], [ -3.152803390999964, 42.80997314800004 ], [ -3.149695633999954, 42.81258531800006 ], [ -3.149293591999935, 42.814811041000041 ], [ -3.147999669999933, 42.821974250000039 ], [ -3.141043073999981, 42.834792140000047 ], [ -3.131813312999952, 42.838905785000065 ], [ -3.131725789999962, 42.838944793000053 ], [ -3.131668331999947, 42.839105625000059 ], [ -3.127944568999965, 42.849528977000034 ], [ -3.124037654999938, 42.849623720000068 ], [ -3.123316812999974, 42.849641200000065 ], [ -3.114501468999947, 42.859639807000065 ], [ -3.105987933999927, 42.878972290000036 ], [ -3.110992225999951, 42.881443292000029 ], [ -3.112398342999938, 42.882137599000032 ], [ -3.114116576999947, 42.885136701000079 ], [ -3.116623208999954, 42.88951191700005 ], [ -3.12436725699996, 42.891064148000055 ], [ -3.136631697999974, 42.877859692000072 ], [ -3.138415412999962, 42.872292303000052 ], [ -3.138750458999937, 42.871246546000066 ], [ -3.151167061999956, 42.860997259000044 ], [ -3.164151094999966, 42.856881478000048 ], [ -3.173486909999951, 42.857799341000032 ], [ -3.183573830999933, 42.86387854700007 ], [ -3.190938425999946, 42.86831705600008 ], [ -3.210219749999965, 42.844174287000044 ], [ -3.220875993999925, 42.838458897000066 ], [ -3.214340841999956, 42.833719603000077 ], [ -3.205563579999932, 42.827354330000048 ], [ -3.217000262999932, 42.826469362000068 ], [ -3.225871320999943, 42.830070327000044 ], [ -3.227687784999944, 42.832043058000068 ], [ -3.236791082999957, 42.837886897000033 ], [ -3.253641197999968, 42.852771611000037 ], [ -3.26915880699994, 42.864048107000031 ], [ -3.282640197999967, 42.875465653000049 ], [ -3.286797538999963, 42.885097472000041 ], [ -3.280187459999979, 42.886877071000072 ], [ -3.277074174999939, 42.887715246000027 ], [ -3.276425102999951, 42.895189411000047 ], [ -3.275851861999968, 42.901790366000057 ], [ -3.261364411999978, 42.90752350300005 ], [ -3.249586053999963, 42.912184567000054 ], [ -3.248154987999953, 42.916241986000045 ], [ -3.245432473999927, 42.923960969000063 ], [ -3.235996814999964, 42.935002968000049 ], [ -3.234099181999966, 42.943379565000043 ], [ -3.223334018999935, 42.94878465000005 ], [ -3.214880432999962, 42.946011650000059 ], [ -3.212432613999965, 42.94520870000008 ], [ -3.208421929999929, 42.945065746000068 ], [ -3.180766369999958, 42.944080013000075 ], [ -3.151361060999932, 42.936136519000058 ], [ -3.148709353999948, 42.931752353000036 ], [ -3.148354695999956, 42.922408330000053 ], [ -3.148173190999955, 42.917626290000044 ], [ -3.138187990999938, 42.914197909000052 ], [ -3.13386385299998, 42.912713232000044 ], [ -3.131814021999958, 42.910818382000059 ], [ -3.125874558999953, 42.905327981000028 ], [ -3.117562322999959, 42.905852352000068 ], [ -3.111207539999953, 42.90625323900008 ], [ -3.104694126999959, 42.910109828000031 ], [ -3.093090066999935, 42.901559253000073 ], [ -3.089547101999926, 42.89894858200006 ], [ -3.076020599999936, 42.901876583000046 ], [ -3.070323218999931, 42.903109861000075 ], [ -3.068746963999956, 42.902946476000068 ], [ -3.059193542999935, 42.90195622400006 ], [ -3.033163775999981, 42.905820644000073 ], [ -3.025905576999946, 42.907821954000042 ], [ -3.016167340999971, 42.910507087000042 ], [ -3.014620725999976, 42.915730248000045 ], [ -3.013361198999974, 42.919983868000031 ], [ -3.004451751999966, 42.92776808900004 ], [ -3.001511959999959, 42.92776808900004 ], [ -3.000432088999958, 42.92776808900004 ], [ -2.997483986999953, 42.92776808900004 ], [ -2.992727800999944, 42.934304516000054 ], [ -2.992092321999962, 42.935177855000063 ], [ -2.991671845999974, 42.935200404000057 ], [ -2.987858066999934, 42.935404925000057 ], [ -2.985150101999977, 42.936279557000034 ], [ -2.98141878399997, 42.939877043000081 ], [ -2.996081880999952, 42.952272450000066 ], [ -3.006868549999979, 42.952551530000051 ], [ -3.011828242999968, 42.952679851000028 ], [ -3.020920513999954, 42.956569935000061 ], [ -3.021749045999968, 42.960491563000062 ], [ -3.021756254999957, 42.96052568500005 ], [ -3.022680347999938, 42.960988493000059 ], [ -3.025905576999946, 42.96260376500004 ], [ -3.042844689999924, 42.971087278000027 ], [ -3.037527900999976, 42.982438954000031 ], [ -3.025905576999946, 42.98225556400007 ], [ -3.007851608999943, 42.981970689000036 ], [ -3.000590722999959, 42.989045762000046 ], [ -2.974705143999927, 42.989206587000069 ], [ -2.970565165999972, 42.990514202000043 ], [ -2.961018908999961, 42.993529393000074 ], [ -2.958228773999963, 42.994410659000039 ], [ -2.955787194999971, 42.998543559000041 ], [ -2.955577244999972, 42.998898945000064 ], [ -2.965120225999954, 43.000632463000045 ], [ -2.978161927999963, 42.995320112000059 ], [ -2.984760105999953, 42.992632439000033 ], [ -2.99043323799998, 42.999887333000061 ], [ -2.990720343999953, 43.000254489000042 ], [ -2.990440645999968, 43.000623346000054 ], [ -2.985134710999944, 43.007620658000064 ], [ -2.986802470999976, 43.011507668000036 ], [ -3.007137002999968, 43.015261309000039 ], [ -3.011816500999942, 43.016125118000048 ], [ -3.021670452999956, 43.017944102000058 ], [ -3.025905576999946, 43.018725882000069 ], [ -3.03107956599996, 43.01968097200006 ], [ -3.031846207999934, 43.023003194000069 ], [ -3.026973986999963, 43.028180565000071 ], [ -3.025905576999946, 43.029315890000078 ], [ -3.018344400999979, 43.037350626000034 ], [ -3.025905576999946, 43.037091487000055 ], [ -3.028042395999933, 43.037018254000031 ], [ -3.029933093999944, 43.045668864000049 ], [ -3.050994465999963, 43.045520358000033 ], [ -3.062637193999933, 43.034839106000049 ], [ -3.06340873399995, 43.031647637000049 ], [ -3.065372639999964, 43.023523950000026 ], [ -3.075111265999965, 43.017944102000058 ], [ -3.075113475999956, 43.017942836000032 ], [ -3.07828597799994, 43.016125118000048 ], [ -3.089351078999925, 43.009785252000029 ], [ -3.089153542999952, 43.001503659000036 ], [ -3.126052283999968, 43.007682275000036 ], [ -3.136977514999955, 43.007453979000047 ], [ -3.145645458999979, 43.007272851000039 ], [ -3.169874061999963, 43.016125118000048 ], [ -3.171288258999937, 43.017944102000058 ], [ -3.17783415699995, 43.021934650000048 ], [ -3.168837289999942, 43.028532759000029 ], [ -3.154634375999933, 43.028592333000063 ], [ -3.143474182999967, 43.028639144000067 ], [ -3.146613080999941, 43.034814465000068 ], [ -3.14658521299998, 43.034977431000073 ], [ -3.146546807999925, 43.035202017000074 ], [ -3.141148872999963, 43.066767979000076 ], [ -3.150290060999964, 43.070946056000025 ], [ -3.157112674999951, 43.074064405000058 ], [ -3.147103195999932, 43.084063333000074 ], [ -3.14438549099998, 43.086778174000074 ], [ -3.133973312999956, 43.097179378000078 ], [ -3.141463102999978, 43.10960383500003 ], [ -3.152605532999928, 43.10540779400003 ], [ -3.153745914999945, 43.104978346000053 ], [ -3.171083259999932, 43.110491510000031 ], [ -3.18119612299995, 43.119429799000045 ], [ -3.170633364999958, 43.13234056500005 ], [ -3.162944526999979, 43.141738565000026 ], [ -3.164133944999946, 43.144113914000059 ], [ -3.165847658999951, 43.147536321000075 ], [ -3.162326969999981, 43.153270866000071 ], [ -3.150024164999934, 43.160339415000067 ], [ -3.141839496999978, 43.16113650300008 ], [ -3.137911250999935, 43.161720316000071 ], [ -3.134742952999943, 43.157974419000027 ], [ -3.133706734999976, 43.156749292000029 ], [ -3.128893304999963, 43.155367927000043 ], [ -3.124191731999929, 43.154018664000034 ], [ -3.122913369999935, 43.152703383000073 ], [ -3.116423202999954, 43.14602577900007 ], [ -3.108863952999968, 43.143266035000067 ], [ -3.100261110999952, 43.147292214000061 ], [ -3.092984420999926, 43.150697747000038 ], [ -3.08374570899997, 43.148504540000033 ], [ -3.074686756999938, 43.14635400700007 ], [ -3.07012631799995, 43.150688341000034 ], [ -3.065135743999974, 43.155431484000076 ], [ -3.05286405499993, 43.157474940000043 ], [ -3.02740562799994, 43.161714225000026 ], [ -3.027172137999969, 43.170640530000071 ], [ -3.025905576999946, 43.17243747100008 ], [ -3.019222981999974, 43.181918438000025 ], [ -3.020718830999954, 43.191514204000043 ], [ -3.01841742299996, 43.19469130400006 ], [ -3.020316192999928, 43.203010838000068 ], [ -3.020351681999955, 43.203020084000059 ], [ -3.025905576999946, 43.204467097000077 ], [ -3.028415613999925, 43.205121063000036 ], [ -3.038476466999953, 43.21040922800006 ], [ -3.034641079999972, 43.215488826000069 ], [ -3.025905576999946, 43.213789113000075 ], [ -3.022105974999931, 43.213049804000036 ], [ -3.010373057999971, 43.200467337000077 ] ], [ [ -2.852597093999975, 42.76946532200003 ], [ -2.852664966999953, 42.764986706000059 ], [ -2.852753981999967, 42.759113100000036 ], [ -2.854499057999931, 42.747725869000078 ], [ -2.862002116999975, 42.745854511000061 ], [ -2.868859431999965, 42.740135128000077 ], [ -2.854755074999957, 42.73609549400004 ], [ -2.849172167999939, 42.73166903300006 ], [ -2.852570067999977, 42.729495985000028 ], [ -2.853897536999966, 42.728647033000072 ], [ -2.852985085999933, 42.72663900100008 ], [ -2.842375936999929, 42.722862617000033 ], [ -2.838410556999975, 42.721451119000051 ], [ -2.829715475999933, 42.718601761000059 ], [ -2.826182918999962, 42.712325747000079 ], [ -2.824329571999954, 42.709033053000041 ], [ -2.815927404999968, 42.707411601000047 ], [ -2.812163292999969, 42.706685202000074 ], [ -2.807909171999938, 42.704431549000049 ], [ -2.796701582999958, 42.698494241000049 ], [ -2.791160439999942, 42.698206722000066 ], [ -2.786690938999925, 42.697974809000073 ], [ -2.784299689999955, 42.697850732000063 ], [ -2.77233752199993, 42.678694279000069 ], [ -2.771272988999954, 42.67698951400007 ], [ -2.772832662999974, 42.670411581000053 ], [ -2.767900078999958, 42.666010947000075 ], [ -2.760640214999967, 42.665627173000075 ], [ -2.757564162999927, 42.665970182000081 ], [ -2.753307432999975, 42.665313909000076 ], [ -2.74893683199997, 42.665905180000038 ], [ -2.746436476999975, 42.66507819900005 ], [ -2.740640418999931, 42.664168545000052 ], [ -2.737708914999928, 42.663079147000076 ], [ -2.717405284999927, 42.662627744000076 ], [ -2.71448449899998, 42.667880251000042 ], [ -2.713337333999959, 42.66994322000005 ], [ -2.70124934699993, 42.674404614000025 ], [ -2.674902399999951, 42.668861674000027 ], [ -2.666746750999948, 42.667145867000045 ], [ -2.66326397399996, 42.669150244000036 ], [ -2.658565601999953, 42.671854210000049 ], [ -2.65429155299995, 42.669422698000062 ], [ -2.65186466199998, 42.663082770000074 ], [ -2.651009395999949, 42.660848500000043 ], [ -2.638066017999961, 42.649715054000069 ], [ -2.61868231099993, 42.648624889000075 ], [ -2.612445080999976, 42.647244751000073 ], [ -2.602557480999963, 42.648589739000045 ], [ -2.584243373999925, 42.651080966000052 ], [ -2.572830149999959, 42.647567188000039 ], [ -2.565176357999974, 42.645210822000081 ], [ -2.559947466999972, 42.647124053000027 ], [ -2.554075951999948, 42.649272418000066 ], [ -2.548936812999955, 42.645575293000036 ], [ -2.549226752999971, 42.642330549000064 ], [ -2.549562050999953, 42.638578205000044 ], [ -2.538271928999961, 42.638675902000045 ], [ -2.517772144999981, 42.647555490000059 ], [ -2.51799439499996, 42.654993636000029 ], [ -2.522997370999974, 42.66564737300007 ], [ -2.523174894999954, 42.68386330800007 ], [ -2.537174895999954, 42.686932934000026 ], [ -2.542899085999977, 42.678563927000027 ], [ -2.549211634999949, 42.669334712000079 ], [ -2.576308680999944, 42.668500361000042 ], [ -2.579841245999944, 42.675646227000072 ], [ -2.581748015999949, 42.677524969000046 ], [ -2.593779039999959, 42.689379145000032 ], [ -2.598314295999955, 42.691688590000069 ], [ -2.608286644999964, 42.696766713000045 ], [ -2.60740243999993, 42.70644539500006 ], [ -2.600384873999928, 42.713997961000075 ], [ -2.597401398999978, 42.713431039000056 ], [ -2.589344368999946, 42.711900037000078 ], [ -2.573615203999964, 42.724473064000051 ], [ -2.563611710999965, 42.739358057000061 ], [ -2.56348173899994, 42.747077836000074 ], [ -2.558759295999948, 42.75673979700008 ], [ -2.559093399999938, 42.762016219000031 ], [ -2.563578622999955, 42.762601201000052 ], [ -2.571273245999976, 42.757678362000036 ], [ -2.57580593299997, 42.754778455000064 ], [ -2.589741165999953, 42.751010458000053 ], [ -2.592144635999944, 42.757085017000065 ], [ -2.592677271999946, 42.758431208000047 ], [ -2.597332867999967, 42.762178356000049 ], [ -2.601739541999962, 42.765725154000052 ], [ -2.601855442999977, 42.766618212000026 ], [ -2.602371090999952, 42.770591465000052 ], [ -2.626007338999955, 42.767643138000039 ], [ -2.643362059999959, 42.765478353000049 ], [ -2.648628527999961, 42.76852285700005 ], [ -2.655410681999967, 42.772443567000039 ], [ -2.664087154999947, 42.773001563000037 ], [ -2.669180181999934, 42.773329102000048 ], [ -2.673308056999929, 42.775673061000077 ], [ -2.679807474999961, 42.779363671000056 ], [ -2.685612085999935, 42.779237810000041 ], [ -2.691567643999974, 42.779108677000067 ], [ -2.699941309999929, 42.783389303000035 ], [ -2.700880810999934, 42.783869577000075 ], [ -2.70166031399998, 42.783887337000067 ], [ -2.710776707999969, 42.784095040000068 ], [ -2.725035343999934, 42.790659599000037 ], [ -2.731866793999927, 42.793804743000067 ], [ -2.740390648999949, 42.793094136000036 ], [ -2.746436476999975, 42.792590115000053 ], [ -2.779200913999944, 42.792709503000026 ], [ -2.786690938999925, 42.792385238000065 ], [ -2.810820255999943, 42.791340611000066 ], [ -2.82619662999997, 42.785425228000065 ], [ -2.832388455999933, 42.792614623000077 ], [ -2.83549931899995, 42.796226679000029 ], [ -2.83816466199994, 42.78712742600004 ], [ -2.840690104999965, 42.778505779000056 ], [ -2.84467073199994, 42.777193216000057 ], [ -2.847223049999968, 42.77635162100006 ], [ -2.852597093999975, 42.76946532200003 ] ] ] ] } },
{ "type": "Feature", "properties": { "unit_id": "pv_ES212", "unit_name": "Gipuzkoa", "unit_type": "provincia", "unit_source": "GISCO", "NUTS_ID": "ES212", "NAME_LATN": "Gipuzkoa" }, "geometry": { "type": "MultiPolygon", "coordinates": [ [ [ [ -1.785981393999975, 43.350584328000025 ], [ -1.772258715999953, 43.342829678000044 ], [ -1.770501330999934, 43.343039627000053 ], [ -1.761990923999974, 43.344056335000062 ], [ -1.760540247999927, 43.344252291000032 ], [ -1.753995600999929, 43.340325236000069 ], [ -1.750327120999941, 43.333207084000037 ], [ -1.750188587999958, 43.332938281000054 ], [ -1.74899955199993, 43.33256005100003 ], [ -1.739149324999971, 43.329426711000053 ], [ -1.740241589999926, 43.319607991000055 ], [ -1.74068135999994, 43.315654760000029 ], [ -1.738519983999936, 43.312064355000075 ], [ -1.728903005999939, 43.296088954000027 ], [ -1.730699793999975, 43.294269705000033 ], [ -1.737845453999967, 43.294189293000045 ], [ -1.738882400999955, 43.294177624000042 ], [ -1.741484494999952, 43.294148342000028 ], [ -1.748432018999949, 43.291940369000031 ], [ -1.764400830999932, 43.286865367000075 ], [ -1.768178162999959, 43.287745659000052 ], [ -1.772966435999933, 43.288861547000067 ], [ -1.783258588999956, 43.286773491000076 ], [ -1.783698338999955, 43.284451519000072 ], [ -1.783702357999971, 43.284447825000029 ], [ -1.784292800999935, 43.283905249000043 ], [ -1.793386495999926, 43.275548753000066 ], [ -1.794518143999937, 43.255166226000028 ], [ -1.794975456999964, 43.246929391000037 ], [ -1.807796012999972, 43.239745912000046 ], [ -1.811037340999974, 43.239231394000058 ], [ -1.820086047999951, 43.237795033000054 ], [ -1.823932057999968, 43.231797801000027 ], [ -1.825793595999926, 43.228895033000072 ], [ -1.84116000399996, 43.224533081000061 ], [ -1.841778233999946, 43.224645390000035 ], [ -1.851320440999928, 43.226378853000028 ], [ -1.853293472999951, 43.22054674900005 ], [ -1.854393895999976, 43.217294 ], [ -1.861812153999949, 43.213319083000044 ], [ -1.865738060999945, 43.218221183000026 ], [ -1.866404521999925, 43.221625011000071 ], [ -1.867880227999933, 43.22916190400008 ], [ -1.87289188799997, 43.228142627000068 ], [ -1.875938220999956, 43.23103306400003 ], [ -1.879018946999963, 43.227029062000042 ], [ -1.876687192999952, 43.221605222000051 ], [ -1.875979326999925, 43.21995867000004 ], [ -1.879451586999949, 43.217195767000078 ], [ -1.875790560999974, 43.213951560000055 ], [ -1.879272483999955, 43.211543947000052 ], [ -1.881875235999928, 43.205867922000039 ], [ -1.885042410999972, 43.208166328000061 ], [ -1.885157053999933, 43.212657866000029 ], [ -1.891478551999967, 43.209245870000075 ], [ -1.900059064999937, 43.210844841000039 ], [ -1.902852716999973, 43.214262863000044 ], [ -1.909965584999952, 43.222965430000045 ], [ -1.910899538999956, 43.227180428000054 ], [ -1.914632371999971, 43.222787184000026 ], [ -1.911871023999936, 43.204847834000077 ], [ -1.911681220999981, 43.203614762000029 ], [ -1.912130820999948, 43.202818428000057 ], [ -1.921537803999968, 43.186156719000053 ], [ -1.920938787999944, 43.172512057000063 ], [ -1.919264663999968, 43.170490490000077 ], [ -1.916855363999957, 43.169187910000062 ], [ -1.918340199999932, 43.159647922000033 ], [ -1.919673703999933, 43.150115697000047 ], [ -1.913133878999929, 43.146462304000067 ], [ -1.902848561999974, 43.14071653700006 ], [ -1.903204628999958, 43.135505880000039 ], [ -1.91632888099997, 43.127656198000068 ], [ -1.921566391999932, 43.119065607000039 ], [ -1.923187546999941, 43.116406580000046 ], [ -1.93813444999995, 43.108482007000077 ], [ -1.939779401999942, 43.107079233000036 ], [ -1.947136662999981, 43.100805145000038 ], [ -1.94716264799996, 43.100594597000054 ], [ -1.947546467999928, 43.097484622000025 ], [ -1.956265278999979, 43.095473457000026 ], [ -1.973378017999948, 43.091526069000054 ], [ -1.971913628999971, 43.088051049000057 ], [ -1.971615005999979, 43.087342413000044 ], [ -1.973162758999933, 43.084571868000069 ], [ -1.978825412999925, 43.081669004000048 ], [ -1.983734410999944, 43.080433112000037 ], [ -1.988474098999973, 43.078396096000063 ], [ -1.989771145999953, 43.079467143000045 ], [ -1.990426081999942, 43.079270124000061 ], [ -2.00989259499994, 43.073414170000035 ], [ -2.012379807999935, 43.073047514000052 ], [ -2.015506889999926, 43.06737366200008 ], [ -2.016087170999924, 43.066320786000063 ], [ -2.017030085999977, 43.066157606000047 ], [ -2.022847076999938, 43.065150926000058 ], [ -2.020484416999977, 43.05957507100004 ], [ -2.018606275999957, 43.055142674000081 ], [ -2.02023050899993, 43.047854347000055 ], [ -2.032472766999945, 43.032055329000059 ], [ -2.035327366999979, 43.03129050900003 ], [ -2.041416764999951, 43.029659004000052 ], [ -2.040522193999948, 43.021496434000028 ], [ -2.038518935999946, 43.017944102000058 ], [ -2.03749315999994, 43.016125118000048 ], [ -2.033945025999969, 43.009833295000078 ], [ -2.032148491999976, 43.006647542000053 ], [ -2.032273347999933, 43.00033128900003 ], [ -2.032278506999944, 43.000070288000074 ], [ -2.032224351999957, 43.000052792000076 ], [ -2.028329431999964, 42.998794476000057 ], [ -2.038680627999952, 42.981466627000032 ], [ -2.052598233999959, 42.976283957000078 ], [ -2.073946350999961, 42.975900488000036 ], [ -2.083117669999979, 42.975735747000044 ], [ -2.09531835699994, 42.972272372000077 ], [ -2.098531776999948, 42.964094078000073 ], [ -2.104415166999956, 42.949120598000036 ], [ -2.117444558999978, 42.942143509000061 ], [ -2.133354727999972, 42.940952336000066 ], [ -2.139020199999948, 42.94133531500006 ], [ -2.15140050399998, 42.942172210000081 ], [ -2.161209718999942, 42.939110825000057 ], [ -2.173887801999967, 42.935154088000047 ], [ -2.179990167999961, 42.935675135000054 ], [ -2.184709680999958, 42.940414307000026 ], [ -2.193061095999951, 42.948800511000059 ], [ -2.210283511999933, 42.949870949000058 ], [ -2.210956258999943, 42.945312546000025 ], [ -2.216256318999967, 42.941951929000027 ], [ -2.21623275099995, 42.940562767000074 ], [ -2.216213865999975, 42.939449627000045 ], [ -2.215535625999962, 42.936851424000054 ], [ -2.220351228999959, 42.933147353000038 ], [ -2.222169690999976, 42.933601507000049 ], [ -2.225421031999929, 42.933149436000065 ], [ -2.22661420999998, 42.932983535000062 ], [ -2.232181470999933, 42.931750864000037 ], [ -2.234408474999952, 42.928161679000027 ], [ -2.235592148999956, 42.926566865000041 ], [ -2.237848119999967, 42.921413519000055 ], [ -2.236780815999964, 42.916606850000051 ], [ -2.237047235999967, 42.911110381000071 ], [ -2.237781694999967, 42.895957907000025 ], [ -2.23994926499995, 42.895206374000054 ], [ -2.248057053999958, 42.897276790000035 ], [ -2.248447241999941, 42.897376429000076 ], [ -2.250807096999949, 42.895691176000071 ], [ -2.288679853999952, 42.903045825000049 ], [ -2.296501993999925, 42.915279425000051 ], [ -2.301955299999975, 42.923808238000049 ], [ -2.31556347999998, 42.928823221000073 ], [ -2.322988700999929, 42.931559616000072 ], [ -2.331485250999947, 42.934093973000074 ], [ -2.339044207999962, 42.936348664000036 ], [ -2.350931884999966, 42.942569445000061 ], [ -2.351691532999951, 42.944870177000041 ], [ -2.351754849999963, 42.945434340000077 ], [ -2.351949244999958, 42.947166437000078 ], [ -2.353086968999946, 42.948677001000078 ], [ -2.354825520999952, 42.949985371000025 ], [ -2.359784772999944, 42.948226009000052 ], [ -2.363098012999956, 42.947050592000039 ], [ -2.384835887999941, 42.951003826000033 ], [ -2.388185312999951, 42.952157355000054 ], [ -2.407283903999939, 42.958734836000076 ], [ -2.419925655999975, 42.95655101300008 ], [ -2.422729176999951, 42.956066714000031 ], [ -2.44490456699998, 42.958064917000058 ], [ -2.451971920999938, 42.956980913000052 ], [ -2.47280726799994, 42.963871153000071 ], [ -2.478845029999945, 42.965867838000065 ], [ -2.483231113999977, 42.964843416000065 ], [ -2.489430012999946, 42.963276898000061 ], [ -2.50284120699996, 42.959887766000065 ], [ -2.516835425999943, 42.965707842000029 ], [ -2.535331223999947, 42.973400086000026 ], [ -2.539880710999967, 42.965534326000068 ], [ -2.540418403999979, 42.960108021000053 ], [ -2.541158444999951, 42.952639662000081 ], [ -2.54393474099993, 42.950609522000036 ], [ -2.548198303999925, 42.953083088000028 ], [ -2.550638486999958, 42.957571917000053 ], [ -2.551186454999936, 42.958579928000063 ], [ -2.559571323999933, 42.960275945000035 ], [ -2.579845929999976, 42.964376913000081 ], [ -2.596830300999954, 42.975929144000077 ], [ -2.602713706999964, 42.982181366000077 ], [ -2.598481039999967, 42.984292814000071 ], [ -2.593040048999967, 42.98700702900004 ], [ -2.59759868499998, 42.995860996000033 ], [ -2.600079620999963, 43.000679571000035 ], [ -2.596830921999981, 43.008002239000064 ], [ -2.586698577999925, 43.008448101000056 ], [ -2.581265476999931, 43.008687179000049 ], [ -2.570189295999967, 43.014728863000073 ], [ -2.567629549999936, 43.016125118000048 ], [ -2.564294816999961, 43.017944102000058 ], [ -2.556278032999955, 43.020021239000073 ], [ -2.544331445999944, 43.023116581000068 ], [ -2.537412300999961, 43.034195197000031 ], [ -2.533397717999947, 43.040623164000067 ], [ -2.531004436999979, 43.041907044000027 ], [ -2.52474209199994, 43.045266490000074 ], [ -2.526905666999937, 43.048752124000032 ], [ -2.52860226599995, 43.051912383000058 ], [ -2.533248451999953, 43.057497700000056 ], [ -2.545413039999971, 43.072121111000058 ], [ -2.542912429999944, 43.078664379000031 ], [ -2.546386833999975, 43.08800894500007 ], [ -2.542968344999963, 43.091509512000073 ], [ -2.53440878899994, 43.093334225000035 ], [ -2.526843631999952, 43.094946953000033 ], [ -2.513838075999956, 43.090597762000073 ], [ -2.501814786999944, 43.094995945000051 ], [ -2.504716229999929, 43.098557081000081 ], [ -2.501910950999957, 43.115551806000042 ], [ -2.496248025999932, 43.123359561000029 ], [ -2.502938399999948, 43.138594393000062 ], [ -2.501295976999927, 43.151207141000043 ], [ -2.50321529699994, 43.153720895000049 ], [ -2.504780962999973, 43.155771466000033 ], [ -2.50885217299998, 43.160057072000029 ], [ -2.507702937999966, 43.164972656000032 ], [ -2.497063461999971, 43.16806460600003 ], [ -2.484869277999962, 43.171608371000048 ], [ -2.49127191499997, 43.179405078000059 ], [ -2.492479748999926, 43.180875898000068 ], [ -2.490958542999977, 43.186961457000052 ], [ -2.487647913999979, 43.200205571000026 ], [ -2.49179259899995, 43.203721594000058 ], [ -2.496405848999927, 43.207635111000059 ], [ -2.498996444999932, 43.21209286800007 ], [ -2.494130516999974, 43.224695279000059 ], [ -2.470928395999977, 43.223771983000063 ], [ -2.463253502999976, 43.223466572000063 ], [ -2.459862802999965, 43.226138897000055 ], [ -2.436825121999959, 43.243442669000046 ], [ -2.438096154999926, 43.248330140000064 ], [ -2.439006676999952, 43.251831347000063 ], [ -2.428949286999966, 43.257295757000065 ], [ -2.425222110999925, 43.259320817000059 ], [ -2.418061150999961, 43.267601871000068 ], [ -2.43348825399994, 43.284307001000059 ], [ -2.433621714999958, 43.284451519000072 ], [ -2.436490496999966, 43.285995108000066 ], [ -2.439625277999937, 43.289471601000059 ], [ -2.437216689999957, 43.298370893000026 ], [ -2.413144660999933, 43.32070544000004 ], [ -2.41284679499995, 43.321082966000063 ], [ -2.407224241999927, 43.322416432000068 ], [ -2.393413186999965, 43.318730979000065 ], [ -2.379092715999946, 43.308727152000074 ], [ -2.358285907999971, 43.303761222000048 ], [ -2.355701039999929, 43.299598468000056 ], [ -2.348631345999934, 43.299417499000072 ], [ -2.343837649999955, 43.302623290000042 ], [ -2.331485250999947, 43.29899676000008 ], [ -2.325188329999946, 43.297148053000058 ], [ -2.285051218999968, 43.294723623000039 ], [ -2.262944464999975, 43.299889316000076 ], [ -2.261559387999966, 43.300873204000027 ], [ -2.258097846999931, 43.303332106000028 ], [ -2.253795325999931, 43.302448045000062 ], [ -2.247345645999928, 43.301122796000072 ], [ -2.245609945999945, 43.302430292000054 ], [ -2.239100648999965, 43.305428672000062 ], [ -2.229414713999972, 43.309890308000035 ], [ -2.208612150999954, 43.305290036000031 ], [ -2.202781713999968, 43.307587086000069 ], [ -2.201228154999967, 43.301862206000067 ], [ -2.193605369999943, 43.297960250000074 ], [ -2.192691605999926, 43.29665482300004 ], [ -2.189564971999971, 43.292188028000055 ], [ -2.184204263999959, 43.293479694000041 ], [ -2.183026927999947, 43.293763374000036 ], [ -2.180766268999946, 43.292193535000081 ], [ -2.174689643999955, 43.287973825000051 ], [ -2.168399220999959, 43.288932322000051 ], [ -2.141332786999953, 43.293056541000055 ], [ -2.134375281999951, 43.289866639000081 ], [ -2.129868122999937, 43.28780018100008 ], [ -2.123856991999958, 43.291672694000056 ], [ -2.110018286999946, 43.300587915000051 ], [ -2.082975189999956, 43.307857659000035 ], [ -2.012119607999978, 43.323161448000064 ], [ -2.009340786999928, 43.321684832000074 ], [ -2.000526173999958, 43.317000905000043 ], [ -1.992996379999965, 43.316651663000073 ], [ -1.988277681999932, 43.319952439000076 ], [ -1.989662462999945, 43.325159625000026 ], [ -1.975499377999938, 43.32690636500007 ], [ -1.974767418999932, 43.327826388000062 ], [ -1.970252683999945, 43.333501098000056 ], [ -1.962717961999942, 43.33668672500005 ], [ -1.94919090999997, 43.333075716000053 ], [ -1.937609185999975, 43.334974972000055 ], [ -1.93650712699997, 43.334622882000076 ], [ -1.931166324999936, 43.332916582000053 ], [ -1.925316951999946, 43.33210884500005 ], [ -1.925126765999948, 43.335671580000053 ], [ -1.921566391999932, 43.336874425000076 ], [ -1.88719555299997, 43.348486345000026 ], [ -1.880175648999966, 43.353955561000078 ], [ -1.876505016999943, 43.359668843000065 ], [ -1.871130484999981, 43.368034218000048 ], [ -1.857235935999938, 43.375049558000057 ], [ -1.851195420999943, 43.375619114000074 ], [ -1.844350160999966, 43.376264548000051 ], [ -1.837884605999932, 43.379471042000034 ], [ -1.828799561999972, 43.383976632000042 ], [ -1.814188774999934, 43.386328221000042 ], [ -1.804773377999936, 43.38784361900008 ], [ -1.799349992999964, 43.390622318000055 ], [ -1.792121566999924, 43.394325840000079 ], [ -1.789411628999972, 43.390021107000052 ], [ -1.794192521999946, 43.384675 ], [ -1.79740594499998, 43.381081675000075 ], [ -1.797690873999954, 43.376762540000072 ], [ -1.789840932999937, 43.365468771000053 ], [ -1.789518749999957, 43.365270598000052 ], [ -1.781873570999949, 43.360568088000036 ], [ -1.787148130999981, 43.355428344000075 ], [ -1.789346265999939, 43.35328639200003 ], [ -1.785981393999975, 43.350584328000025 ] ] ] ] } },
{ "type": "Feature", "properties": { "unit_id": "pv_ES213", "unit_name": "Bizkaia", "unit_type": "provincia", "unit_source": "GISCO", "NUTS_ID": "ES213", "NAME_LATN": "Bizkaia" }, "geometry": { "type": "MultiPolygon", "coordinates": [ [ [ [ -2.747503107999933, 43.452029032000041 ], [ -2.746566872999949, 43.444458018000034 ], [ -2.746436476999975, 43.443403552000063 ], [ -2.735917897999968, 43.428355988000078 ], [ -2.729786753999974, 43.427069414000073 ], [ -2.722630862999949, 43.425567804000025 ], [ -2.719907496999951, 43.421699068000066 ], [ -2.71779390699993, 43.418696562000036 ], [ -2.713951540999972, 43.417678647000059 ], [ -2.711894621999932, 43.417343284000026 ], [ -2.702145332999976, 43.415753748000043 ], [ -2.698171444999957, 43.40988339200004 ], [ -2.695102582999937, 43.405349968000053 ], [ -2.68834243699996, 43.404722629000048 ], [ -2.680567073999953, 43.409656213000062 ], [ -2.676747863999935, 43.412079558000073 ], [ -2.668225831999962, 43.411065011000062 ], [ -2.660712179999962, 43.410170512000036 ], [ -2.654984748999937, 43.412576530000081 ], [ -2.654798544999949, 43.412654752000037 ], [ -2.646581625999943, 43.415501440000071 ], [ -2.638800075999939, 43.413137498000026 ], [ -2.637914531999968, 43.408596944000067 ], [ -2.637032165999926, 43.404072683000038 ], [ -2.63114384499994, 43.398776948000034 ], [ -2.619032189999928, 43.39236548000008 ], [ -2.611638504999974, 43.392002177000052 ], [ -2.607749488999957, 43.392762810000079 ], [ -2.60211460599993, 43.393864907000079 ], [ -2.595408623999958, 43.391596105000076 ], [ -2.581444664999935, 43.386871747000043 ], [ -2.568544370999973, 43.389056360000041 ], [ -2.561536644999933, 43.39024309000007 ], [ -2.556313197999941, 43.382680895000078 ], [ -2.550352714999974, 43.374051663000046 ], [ -2.535333761999937, 43.375312954000037 ], [ -2.513666975999968, 43.37713252900005 ], [ -2.508106597999927, 43.375712238000062 ], [ -2.501869431999978, 43.366674941000042 ], [ -2.499938374999942, 43.363876950000076 ], [ -2.498331060999931, 43.364255630000059 ], [ -2.495845024999937, 43.36484133600004 ], [ -2.487957635999976, 43.363244542000075 ], [ -2.483356945999958, 43.357022632000053 ], [ -2.470700377999947, 43.349703714000043 ], [ -2.46618733899993, 43.34227781900006 ], [ -2.463998667999931, 43.338676511000074 ], [ -2.449197435999963, 43.334624953000059 ], [ -2.442858154999954, 43.332889694000073 ], [ -2.43802322099998, 43.333950134000077 ], [ -2.423847126999931, 43.330134973000042 ], [ -2.420475286999931, 43.324024628000075 ], [ -2.41284679499995, 43.321082966000063 ], [ -2.413144660999933, 43.32070544000004 ], [ -2.437216689999957, 43.298370893000026 ], [ -2.439625277999937, 43.289471601000059 ], [ -2.436490496999966, 43.285995108000066 ], [ -2.433621714999958, 43.284451519000072 ], [ -2.43348825399994, 43.284307001000059 ], [ -2.418061150999961, 43.267601871000068 ], [ -2.425222110999925, 43.259320817000059 ], [ -2.428949286999966, 43.257295757000065 ], [ -2.439006676999952, 43.251831347000063 ], [ -2.438096154999926, 43.248330140000064 ], [ -2.436825121999959, 43.243442669000046 ], [ -2.459862802999965, 43.226138897000055 ], [ -2.463253502999976, 43.223466572000063 ], [ -2.470928395999977, 43.223771983000063 ], [ -2.494130516999974, 43.224695279000059 ], [ -2.498996444999932, 43.21209286800007 ], [ -2.496405848999927, 43.207635111000059 ], [ -2.49179259899995, 43.203721594000058 ], [ -2.487647913999979, 43.200205571000026 ], [ -2.490958542999977, 43.186961457000052 ], [ -2.492479748999926, 43.180875898000068 ], [ -2.49127191499997, 43.179405078000059 ], [ -2.484869277999962, 43.171608371000048 ], [ -2.497063461999971, 43.16806460600003 ], [ -2.507702937999966, 43.164972656000032 ], [ -2.50885217299998, 43.160057072000029 ], [ -2.504780962999973, 43.155771466000033 ], [ -2.50321529699994, 43.153720895000049 ], [ -2.501295976999927, 43.151207141000043 ], [ -2.502938399999948, 43.138594393000062 ], [ -2.496248025999932, 43.123359561000029 ], [ -2.501910950999957, 43.115551806000042 ], [ -2.504716229999929, 43.098557081000081 ], [ -2.501814786999944, 43.094995945000051 ], [ -2.513838075999956, 43.090597762000073 ], [ -2.526843631999952, 43.094946953000033 ], [ -2.53440878899994, 43.093334225000035 ], [ -2.542968344999963, 43.091509512000073 ], [ -2.546386833999975, 43.08800894500007 ], [ -2.547264350999967, 43.08766717900005 ], [ -2.553152181999963, 43.086778174000074 ], [ -2.589489309999976, 43.081291622000037 ], [ -2.623969385999942, 43.085291543000039 ], [ -2.625004914999977, 43.085393020000026 ], [ -2.633816759999945, 43.086256541000068 ], [ -2.65881286399997, 43.07491710100004 ], [ -2.661133234999966, 43.065760638000029 ], [ -2.648042218999933, 43.055319429000065 ], [ -2.63442620099994, 43.044459486000051 ], [ -2.631215374999954, 43.027959567000039 ], [ -2.633624564999934, 43.019909932000076 ], [ -2.647095671999978, 43.02431086200005 ], [ -2.66613307199998, 43.030530266000028 ], [ -2.676115943999946, 43.026427862000048 ], [ -2.678218412999968, 43.02541893800003 ], [ -2.680761736999955, 43.024198458000058 ], [ -2.686609183999963, 43.021856876000072 ], [ -2.697499411999956, 43.026105407000045 ], [ -2.707624630999931, 43.030055491000041 ], [ -2.71489380099996, 43.030248516000029 ], [ -2.723048787999971, 43.027015053000071 ], [ -2.728957068999932, 43.02467241100004 ], [ -2.732467132999943, 43.027350378000051 ], [ -2.740300498999943, 43.033326762000058 ], [ -2.746436476999975, 43.032851875000063 ], [ -2.750721125999974, 43.02800028200005 ], [ -2.751473005999969, 43.027148914000065 ], [ -2.773800465999955, 43.02895692900006 ], [ -2.774360933999958, 43.030220512000028 ], [ -2.77474990199994, 43.031097446000047 ], [ -2.78120966299997, 43.033946849000074 ], [ -2.786690938999925, 43.03434763000007 ], [ -2.788978455999938, 43.034514889000036 ], [ -2.798885329999962, 43.034240300000079 ], [ -2.800424128999964, 43.034197649000077 ], [ -2.804672877999963, 43.035188936000054 ], [ -2.806712580999942, 43.035664824000037 ], [ -2.80818931999994, 43.035765315000049 ], [ -2.811417307999932, 43.035984977000055 ], [ -2.821712270999967, 43.035596923000071 ], [ -2.830934276999926, 43.039493436000043 ], [ -2.83611512899995, 43.041682467000044 ], [ -2.847967345999962, 43.044493418000059 ], [ -2.855032926999968, 43.048346633000051 ], [ -2.864169187999948, 43.051736108000057 ], [ -2.870229895999955, 43.051030636000064 ], [ -2.874086573999932, 43.051033921000055 ], [ -2.875986943999976, 43.051263483000071 ], [ -2.88009434099996, 43.051106914000059 ], [ -2.886145058999944, 43.04944703700005 ], [ -2.887860764999971, 43.048824245000048 ], [ -2.889122222999958, 43.048366342000065 ], [ -2.890182534999951, 43.045716531000039 ], [ -2.91782862499997, 43.059687249000035 ], [ -2.93048319299993, 43.072114369000076 ], [ -2.953143496999928, 43.086778174000074 ], [ -2.958767895999927, 43.090417802000047 ], [ -2.972690565999926, 43.09505940300005 ], [ -2.975119842999959, 43.099038900000039 ], [ -2.965196854999931, 43.104115093000075 ], [ -2.955074850999949, 43.115319656000054 ], [ -2.937082217999944, 43.135236619000068 ], [ -2.938497136999956, 43.145254978000025 ], [ -2.939480183999933, 43.145831219000058 ], [ -2.944912681999938, 43.151375841000061 ], [ -2.952909494999972, 43.159537705000048 ], [ -2.950665896999965, 43.163855961000081 ], [ -2.947421984999949, 43.170099525000069 ], [ -2.957293087999972, 43.174103496000043 ], [ -2.960075348999965, 43.175232052000069 ], [ -2.972946778999926, 43.186234360000071 ], [ -2.975534306999975, 43.190975092000031 ], [ -2.981526163999945, 43.201953055000047 ], [ -3.000662213999931, 43.197955950000051 ], [ -3.006829919999973, 43.196667650000052 ], [ -3.010373057999971, 43.200467337000077 ], [ -3.022105974999931, 43.213049804000036 ], [ -3.025905576999946, 43.213789113000075 ], [ -3.034641079999972, 43.215488826000069 ], [ -3.038476466999953, 43.21040922800006 ], [ -3.028415613999925, 43.205121063000036 ], [ -3.025905576999946, 43.204467097000077 ], [ -3.020351681999955, 43.203020084000059 ], [ -3.020316192999928, 43.203010838000068 ], [ -3.01841742299996, 43.19469130400006 ], [ -3.020718830999954, 43.191514204000043 ], [ -3.019222981999974, 43.181918438000025 ], [ -3.025905576999946, 43.17243747100008 ], [ -3.027172137999969, 43.170640530000071 ], [ -3.02740562799994, 43.161714225000026 ], [ -3.05286405499993, 43.157474940000043 ], [ -3.065135743999974, 43.155431484000076 ], [ -3.07012631799995, 43.150688341000034 ], [ -3.074686756999938, 43.14635400700007 ], [ -3.08374570899997, 43.148504540000033 ], [ -3.092984420999926, 43.150697747000038 ], [ -3.100261110999952, 43.147292214000061 ], [ -3.108863952999968, 43.143266035000067 ], [ -3.116423202999954, 43.14602577900007 ], [ -3.122913369999935, 43.152703383000073 ], [ -3.124191731999929, 43.154018664000034 ], [ -3.128893304999963, 43.155367927000043 ], [ -3.133706734999976, 43.156749292000029 ], [ -3.134742952999943, 43.157974419000027 ], [ -3.137911250999935, 43.161720316000071 ], [ -3.141839496999978, 43.16113650300008 ], [ -3.142235549999953, 43.166717809000033 ], [ -3.148292264999952, 43.17400105300004 ], [ -3.150468825999951, 43.174454156000081 ], [ -3.154214127999978, 43.176914107000073 ], [ -3.156171434999976, 43.177146839000045 ], [ -3.158006377999925, 43.177974324000047 ], [ -3.161007514999937, 43.177841024000031 ], [ -3.163011768999979, 43.176856925000038 ], [ -3.164761307999925, 43.177692427000068 ], [ -3.168073095999944, 43.178527918000043 ], [ -3.171529222999936, 43.177162500000065 ], [ -3.174091351999948, 43.177311099000065 ], [ -3.175557707999928, 43.175445578000051 ], [ -3.179083755999955, 43.175230322000061 ], [ -3.183668239999975, 43.171960101000025 ], [ -3.186985389999961, 43.169593900000052 ], [ -3.19926229999993, 43.171397186000036 ], [ -3.199940176999974, 43.171916036000027 ], [ -3.208528356999977, 43.178489471000034 ], [ -3.214335804999962, 43.174266202000069 ], [ -3.21613539599997, 43.173951143000068 ], [ -3.223230821999948, 43.172708930000056 ], [ -3.233142185999952, 43.179119323000066 ], [ -3.235539216999939, 43.182099719000064 ], [ -3.239957109999978, 43.187592794000068 ], [ -3.253273609999951, 43.198747381000032 ], [ -3.255810671999939, 43.195744619000038 ], [ -3.256109034999952, 43.195391489000031 ], [ -3.258369885999969, 43.19528676300007 ], [ -3.278148731999977, 43.194370574000061 ], [ -3.278798346999963, 43.189908206000041 ], [ -3.296544501999961, 43.182571619000043 ], [ -3.302819693999936, 43.177988199000026 ], [ -3.310538544999929, 43.172350326000071 ], [ -3.332391457999961, 43.166081496000061 ], [ -3.333336790999965, 43.166111839000052 ], [ -3.34120134799997, 43.166364270000031 ], [ -3.344768076999969, 43.161663117000046 ], [ -3.350421680999943, 43.154211344000032 ], [ -3.368888907999974, 43.150972323000076 ], [ -3.387731125999949, 43.14091208800005 ], [ -3.417607936999957, 43.133315977000052 ], [ -3.422019853999927, 43.151040269000077 ], [ -3.423095628999931, 43.152944906000073 ], [ -3.432883298999968, 43.170273777000034 ], [ -3.435306989999958, 43.19662373500006 ], [ -3.43543146199994, 43.197976975000074 ], [ -3.433895757999949, 43.206913811000049 ], [ -3.441020631999947, 43.217060866000054 ], [ -3.444446906999929, 43.221940476000043 ], [ -3.450237867999931, 43.236105131000045 ], [ -3.438694390999956, 43.237736780000034 ], [ -3.415388427999972, 43.241031034000059 ], [ -3.411478965999947, 43.245589683000048 ], [ -3.409204728999953, 43.248241569000072 ], [ -3.403726508999966, 43.247826624000027 ], [ -3.39731702499995, 43.247341141000049 ], [ -3.394216258999961, 43.253360312000041 ], [ -3.388639901999966, 43.264185071000043 ], [ -3.382805707999978, 43.269740685000045 ], [ -3.369995690999929, 43.273832338000034 ], [ -3.364438079999957, 43.273107375000052 ], [ -3.359249597999963, 43.272430564000047 ], [ -3.338584000999958, 43.278060925000034 ], [ -3.340337659999932, 43.284469244000036 ], [ -3.341008964999958, 43.286922363000031 ], [ -3.343128407999927, 43.29428013900008 ], [ -3.332770240999935, 43.299800551000033 ], [ -3.327543741999932, 43.296832584000072 ], [ -3.321682111999962, 43.293503946000044 ], [ -3.313917067999967, 43.29544037800008 ], [ -3.297601392999979, 43.299509150000063 ], [ -3.291538059999937, 43.293153966000034 ], [ -3.289129644999946, 43.290629624000076 ], [ -3.281028794999941, 43.292080258000055 ], [ -3.264345632999948, 43.295067743000061 ], [ -3.229052902999968, 43.28677 ], [ -3.227845468999931, 43.286486118000028 ], [ -3.226723725999932, 43.286532033000071 ], [ -3.218366726999932, 43.286874104000049 ], [ -3.214553004999971, 43.285808964000068 ], [ -3.213119947999928, 43.285142166000071 ], [ -3.20954361899993, 43.283478111000079 ], [ -3.207171876999951, 43.286922363000031 ], [ -3.206725940999945, 43.287274602000025 ], [ -3.192997275999971, 43.29811869100007 ], [ -3.179374754999969, 43.299408471000049 ], [ -3.158663086999979, 43.301369451000028 ], [ -3.151461213999937, 43.307174039000074 ], [ -3.150846885999954, 43.312064354000029 ], [ -3.149999677999972, 43.318808499000056 ], [ -3.15389823299995, 43.338058814000078 ], [ -3.151260012999956, 43.34725136000003 ], [ -3.153338109999936, 43.353222113000072 ], [ -3.143389872999933, 43.351383467000062 ], [ -3.13475094599994, 43.352708318000055 ], [ -3.128045669999949, 43.353736627000046 ], [ -3.12439947799993, 43.352422177000051 ], [ -3.117548708999948, 43.34995248000007 ], [ -3.115503459999957, 43.353869309000061 ], [ -3.111540377999972, 43.361458953000067 ], [ -3.105631538999944, 43.364541109000072 ], [ -3.094576657999937, 43.362946957000077 ], [ -3.085142136999934, 43.356892823000067 ], [ -3.069743296999945, 43.347011384000041 ], [ -3.048554942999942, 43.33940480800004 ], [ -3.047587291999946, 43.339456078000069 ], [ -3.036039833999951, 43.340067911000062 ], [ -3.034983362999981, 43.334018339000067 ], [ -3.030635083999925, 43.331585155000027 ], [ -3.025905576999946, 43.328938645000051 ], [ -3.021949359999951, 43.326724848000026 ], [ -3.017594605999932, 43.323032391000027 ], [ -3.011158143999978, 43.33579605400007 ], [ -3.013746313999945, 43.347236796000061 ], [ -3.020301809999978, 43.352446346000079 ], [ -3.021271593999927, 43.353217018000066 ], [ -3.021178207999981, 43.353988264000066 ], [ -3.020616465999979, 43.358627503000037 ], [ -3.025905576999946, 43.363233627000056 ], [ -3.026950144999944, 43.364143309000042 ], [ -3.037127002999966, 43.373006022000027 ], [ -3.030515215999969, 43.378440140000066 ], [ -3.025905576999946, 43.379519099000049 ], [ -3.022829614999978, 43.380239076000066 ], [ -3.006178035999937, 43.384136641000055 ], [ -2.985385338999947, 43.395515586000045 ], [ -2.973979504999932, 43.405020446000037 ], [ -2.973685307999972, 43.405564611000045 ], [ -2.969596004999971, 43.41312842800005 ], [ -2.960393907999958, 43.414786322000054 ], [ -2.957269733999965, 43.414024048000044 ], [ -2.949562485999934, 43.412143540000045 ], [ -2.945560328999932, 43.412655038000025 ], [ -2.950928578999935, 43.418670815000041 ], [ -2.951262600999939, 43.420454069000073 ], [ -2.952769869999941, 43.428500983000049 ], [ -2.94491624799997, 43.434809840000071 ], [ -2.922317968999948, 43.437453119000054 ], [ -2.908042679999937, 43.438297719000047 ], [ -2.900450571999954, 43.433733238000059 ], [ -2.878364892999969, 43.43562077100006 ], [ -2.865109816999961, 43.432692288000055 ], [ -2.854083152999976, 43.430256135000036 ], [ -2.844372374999978, 43.432056605000071 ], [ -2.837485074999961, 43.432554032000041 ], [ -2.822810255999968, 43.433613902000047 ], [ -2.814163556999972, 43.432437312000047 ], [ -2.80566783699993, 43.431281266000042 ], [ -2.799552808999977, 43.435834147000037 ], [ -2.786690938999925, 43.445410319000075 ], [ -2.78449858099998, 43.447042616000033 ], [ -2.783023937999928, 43.445453274000045 ], [ -2.763407700999949, 43.449295286000051 ], [ -2.762506691999931, 43.449471757000026 ], [ -2.761820204999935, 43.449886501000037 ], [ -2.751860044999944, 43.455903971000055 ], [ -2.747503107999933, 43.452029032000041 ] ], [ [ -3.301374266999971, 43.248834401000067 ], [ -3.293320696999956, 43.240608695000049 ], [ -3.297024844999953, 43.224739664000026 ], [ -3.293170929999974, 43.217097416000058 ], [ -3.295260854999981, 43.210727353000038 ], [ -3.296530986999926, 43.206856008000045 ], [ -3.284818256999927, 43.197173063000037 ], [ -3.279546886999981, 43.19967323000003 ], [ -3.274204357999963, 43.20220714800007 ], [ -3.266671953999946, 43.205779705000054 ], [ -3.26904306299997, 43.212816367000073 ], [ -3.270634203999975, 43.217538341000079 ], [ -3.268847121999954, 43.220757369000069 ], [ -3.267509768999957, 43.223166311000057 ], [ -3.268693, 43.227003507000063 ], [ -3.269838797999967, 43.230719306000026 ], [ -3.264374495999959, 43.235297474000049 ], [ -3.253474344999972, 43.244429969000066 ], [ -3.249176701999943, 43.259649649000039 ], [ -3.267313742999931, 43.266843398000049 ], [ -3.277911511999946, 43.262740410000049 ], [ -3.279361718999951, 43.262178954000035 ], [ -3.283753381999929, 43.261562024000057 ], [ -3.304632051999931, 43.258629042000052 ], [ -3.304515321999929, 43.252042592000066 ], [ -3.301374266999971, 43.248834401000067 ] ] ], [ [ [ -3.029933093999944, 43.045668864000049 ], [ -3.028042395999933, 43.037018254000031 ], [ -3.025905576999946, 43.037091487000055 ], [ -3.018344400999979, 43.037350626000034 ], [ -3.025905576999946, 43.029315890000078 ], [ -3.026973986999963, 43.028180565000071 ], [ -3.031846207999934, 43.023003194000069 ], [ -3.03107956599996, 43.01968097200006 ], [ -3.025905576999946, 43.018725882000069 ], [ -3.021670452999956, 43.017944102000058 ], [ -3.011816500999942, 43.016125118000048 ], [ -3.007137002999968, 43.015261309000039 ], [ -2.986802470999976, 43.011507668000036 ], [ -2.985134710999944, 43.007620658000064 ], [ -2.990440645999968, 43.000623346000054 ], [ -2.990720343999953, 43.000254489000042 ], [ -2.99043323799998, 42.999887333000061 ], [ -2.984760105999953, 42.992632439000033 ], [ -2.978161927999963, 42.995320112000059 ], [ -2.965120225999954, 43.000632463000045 ], [ -2.955577244999972, 42.998898945000064 ], [ -2.955787194999971, 42.998543559000041 ], [ -2.958228773999963, 42.994410659000039 ], [ -2.961018908999961, 42.993529393000074 ], [ -2.970565165999972, 42.990514202000043 ], [ -2.974705143999927, 42.989206587000069 ], [ -3.000590722999959, 42.989045762000046 ], [ -3.007851608999943, 42.981970689000036 ], [ -3.025905576999946, 42.98225556400007 ], [ -3.037527900999976, 42.982438954000031 ], [ -3.043067727999926, 42.984047458000077 ], [ -3.059080607999931, 42.997281602000044 ], [ -3.062380551999979, 43.003358917000071 ], [ -3.076444395999943, 43.007725622000066 ], [ -3.089153542999952, 43.001503659000036 ], [ -3.089351078999925, 43.009785252000029 ], [ -3.07828597799994, 43.016125118000048 ], [ -3.075113475999956, 43.017942836000032 ], [ -3.075111265999965, 43.017944102000058 ], [ -3.065372639999964, 43.023523950000026 ], [ -3.06340873399995, 43.031647637000049 ], [ -3.062637193999933, 43.034839106000049 ], [ -3.050994465999963, 43.045520358000033 ], [ -3.029933093999944, 43.045668864000049 ] ] ], [ [ [ -3.032232196999928, 43.345572520000076 ], [ -3.035260984999979, 43.341793948000031 ], [ -3.040451753999946, 43.343175428000052 ], [ -3.035804804999941, 43.346544196000025 ], [ -3.032232196999928, 43.345572520000076 ] ] ], [ [ [ -2.680414552999935, 43.422755548000055 ], [ -2.682922121999979, 43.422515969000074 ], [ -2.687029627999948, 43.426018400000032 ], [ -2.68100282499995, 43.427668766000068 ], [ -2.680414552999935, 43.422755548000055 ] ] ] ] } }
]
}
